{"type":"FeatureCollection","features":[{"type":"Feature","properties":{"sigla":"AC"},"geometry":{"type":"MultiPolygon","coordinates":[[[[-73.60818,-7.20194],[-73.8037,-7.11106],[-73.70027,-7.30507],[-73.86943,-7.37845],[-73.96174,-7.34547],[-73.9191,-7.4653],[-73.98757,-7.55491],[-73.82661,-7.7156],[-73.6836,-7.77607],[-73.69779,-7.86697],[-73.75874,-7.85794],[-73.77125,-7.90571],[-73.63006,-8.02145],[-73.53674,-8.34549],[-73.38916,-8.46929],[-73.27981,-8.47484],[-73.29057,-8.61464],[-73.13139,-8.70663],[-72.93677,-8.98833],[-73.00515,-9.21058],[-73.21482,-9.41093],[-72.7166,-9.41084],[-72.35685,-9.49377],[-72.25372,-9.61386],[-72.27099,-9.74945],[-72.15068,-9.79905],[-72.18041,-9.99979],[-71.21235,-9.96658],[-71.16436,-9.8754],[-70.9986,-9.81361],[-70.59499,-9.44047],[-70.49398,-9.4262],[-70.55781,-9.57171],[-70.60027,-9.55756],[-70.53776,-9.7649],[-70.62265,-9.8214],[-70.62158,-10.99946],[-70.53104,-10.93459],[-70.43726,-11.03907],[-70.31142,-11.06959],[-69.93509,-10.92091],[-69.73695,-10.97423],[-69.42351,-10.92651],[-68.99423,-11.01055],[-68.7578,-11.00092],[-68.71561,-11.1431],[-68.54282,-11.10876],[-68.23769,-10.95633],[-68.05424,-10.66985],[-67.8773,-10.63956],[-67.70739,-10.70813],[-67.57926,-10.50267],[-67.44112,-10.45245],[-67.40635,-10.37362],[-67.31267,-10.37676],[-67.32163,-10.32204],[-67.16909,-10.33695],[-67.01131,-10.25404],[-66.6193,-9.8936],[-66.80597,-9.81413],[-68.72752,-8.99969],[-70.369,-8.14102],[-72.65882,-7.62461],[-73.60818,-7.20194]]]]}},{"type":"Feature","properties":{"sigla":"AL"},"geometry":{"type":"Polygon","coordinates":[[[-35.46516,-8.82549],[-35.15204,-8.91295],[-35.29003,-9.14715],[-35.29103,-9.14607],[-35.29098,-9.14823],[-35.29064,-9.14819],[-35.35358,-9.255],[-36.27172,-10.27463],[-36.39343,-10.49807],[-36.45574,-10.40721],[-36.56376,-10.41591],[-36.62331,-10.25773],[-36.71994,-10.26447],[-36.91046,-10.13751],[-36.9916,-9.97678],[-37.96006,-9.53282],[-38.00302,-9.51458],[-38.20289,-9.41824],[-38.23708,-9.32927],[-38.0919,-9.17231],[-37.97895,-9.14796],[-37.75991,-8.85721],[-37.69844,-8.99205],[-37.48985,-8.96528],[-37.46896,-9.02726],[-37.3151,-9.09386],[-37.23392,-9.23975],[-37.19812,-9.21515],[-37.16392,-9.27529],[-37.10585,-9.23938],[-36.95201,-9.38212],[-36.8678,-9.26811],[-36.6934,-9.27491],[-36.60379,-9.34062],[-36.43656,-9.21168],[-36.2245,-9.17059],[-36.26639,-9.10196],[-36.12366,-9.03006],[-36.12645,-8.95559],[-36.06348,-8.91492],[-35.79505,-8.84771],[-35.74792,-8.91672],[-35.46516,-8.82549]]]}},{"type":"Feature","properties":{"sigla":"AM"},"geometry":{"type":"MultiPolygon","coordinates":[[[[-67.32553,2.03012],[-67.34293,2.20587],[-67.40687,2.24662],[-67.61914,2.02412],[-67.76827,2.03976],[-67.94057,1.83119],[-68.13932,1.98552],[-68.20799,1.962],[-68.26627,1.82776],[-68.15618,1.73211],[-69.39253,1.72497],[-69.55167,1.79191],[-69.8415,1.72092],[-69.84385,1.08563],[-69.71039,1.12669],[-69.68407,1.07729],[-69.26479,1.06472],[-69.13526,0.87762],[-69.18562,0.73363],[-69.11437,0.65039],[-69.35801,0.6126],[-69.48079,0.73594],[-69.60643,0.62989],[-69.67946,0.67092],[-69.8088,0.57299],[-70.04272,0.55942],[-70.05706,-0.18632],[-69.92277,-0.33106],[-69.61423,-0.5056],[-69.56385,-0.63935],[-69.62574,-0.74922],[-69.42119,-0.99997],[-69.39525,-1.13214],[-69.39953,-1.37026],[-69.96366,-4.30019],[-70.04356,-4.35193],[-70.1078,-4.26427],[-70.19876,-4.36591],[-70.25538,-4.27738],[-70.29777,-4.29018],[-70.32561,-4.14608],[-70.34034,-4.18593],[-70.439,-4.13388],[-70.50331,-4.19639],[-70.54849,-4.13688],[-70.6244,-4.19208],[-70.6528,-4.12677],[-70.68087,-4.199],[-70.80756,-4.18321],[-70.94285,-4.38506],[-70.99621,-4.34516],[-70.9956,-4.38377],[-71.20126,-4.42517],[-71.20728,-4.37933],[-71.26877,-4.38464],[-71.31438,-4.45765],[-71.50876,-4.44796],[-71.49513,-4.48681],[-71.60499,-4.53338],[-71.6197,-4.47],[-71.88295,-4.51612],[-72.12703,-4.7222],[-72.37098,-4.80678],[-72.3861,-4.87178],[-72.62983,-5.05132],[-72.81445,-5.10959],[-72.88545,-5.16594],[-72.86415,-5.27262],[-72.95661,-5.46437],[-72.96166,-5.65391],[-73.23624,-6.03117],[-73.24897,-6.14421],[-73.10883,-6.40935],[-73.13713,-6.49726],[-73.21285,-6.57607],[-73.35622,-6.59424],[-73.64477,-6.76143],[-73.8037,-7.11106],[-73.60818,-7.20194],[-72.65882,-7.62461],[-70.369,-8.14102],[-68.72752,-8.99969],[-66.80597,-9.81413],[-66.775,-9.75269],[-66.50022,-9.63317],[-66.39201,-9.50009],[-66.40846,-9.40655],[-65.96987,-9.41277],[-65.79108,-9.58525],[-65.59632,-9.41348],[-65.43425,-9.46595],[-65.44655,-9.31599],[-65.38475,-9.33764],[-65.24619,-9.25728],[-65.18415,-9.4266],[-65.09737,-9.43213],[-64.93559,-9.25543],[-64.91678,-9.04276],[-64.83884,-8.99373],[-64.61058,-9.01607],[-64.32289,-8.92848],[-64.31081,-8.99609],[-64.14894,-8.95856],[-64.13036,-8.72178],[-64.02736,-8.71529],[-63.98569,-8.58526],[-63.92406,-8.57515],[-63.97399,-8.48686],[-63.94361,-8.33081],[-63.87024,-8.28844],[-63.77299,-8.32035],[-63.62027,-7.96892],[-62.86609,-7.9755],[-62.69175,-8.09253],[-62.68613,-8.1734],[-62.5256,-8.38268],[-62.46494,-8.33936],[-62.36655,-8.38922],[-62.34055,-8.60245],[-62.28077,-8.63821],[-62.26835,-8.57538],[-62.18786,-8.59018],[-62.12444,-8.80129],[-61.90535,-8.87413],[-61.83596,-8.73235],[-61.77407,-8.74785],[-61.71274,-8.68747],[-61.58242,-8.79831],[-58.41535,-8.79246],[-58.32555,-8.71961],[-58.4369,-8.70303],[-58.2865,-8.12813],[-58.38242,-7.83871],[-58.20159,-7.62054],[-58.21249,-7.45808],[-58.13636,-7.35609],[-58.209,-7.13389],[-58.43403,-6.90844],[-58.47795,-6.69924],[-58.26203,-6.46856],[-56.40165,-2.45628],[-56.46509,-2.42278],[-56.38381,-2.27013],[-56.21979,-2.1955],[-56.09705,-2.0368],[-56.22787,-2.05588],[-56.41338,-2.17561],[-56.52656,-2.13886],[-56.67856,-2.21223],[-56.76803,-2.16541],[-56.73403,-2.02168],[-56.85854,-2.01559],[-57.0367,-1.91122],[-57.0634,-1.80816],[-57.1627,-1.76824],[-57.16439,-1.72053],[-57.39218,-1.72274],[-57.40295,-1.67519],[-57.52827,-1.65239],[-57.60207,-1.56996],[-57.67816,-1.594],[-57.71265,-1.50381],[-57.95984,-1.40124],[-58.01703,-1.10582],[-58.16213,-1.22933],[-58.25425,-1.13226],[-58.32277,-1.14296],[-58.42956,-1.02679],[-58.43553,-0.88314],[-58.70466,-0.67864],[-58.72925,-0.43496],[-58.87154,-0.34266],[-58.89489,0.26385],[-60.03743,0.26384],[-60.29886,-0.21141],[-60.28942,-0.29281],[-60.39942,-0.50976],[-60.3031,-0.71094],[-60.47859,-0.77059],[-60.53054,-0.87475],[-60.75219,-0.86086],[-60.76054,-0.76114],[-60.92026,-0.55504],[-61.08693,-0.49976],[-61.21637,-0.49975],[-61.23054,-0.56364],[-61.42831,-0.63392],[-61.53831,-0.75587],[-61.5847,-0.93669],[-61.54359,-1.06197],[-61.62832,-1.30114],[-61.4822,-1.5803],[-61.63498,-1.43363],[-61.89609,-1.39502],[-62.03915,-1.11808],[-62.50054,-0.78114],[-62.4861,-0.68114],[-62.40637,-0.72697],[-62.29034,-0.64633],[-62.30867,-0.51383],[-62.18784,-0.33049],[-62.24784,-0.30161],[-62.24451,-0.17439],[-62.42388,0.09191],[-62.44581,0.3794],[-62.53248,0.50914],[-62.53498,0.69415],[-62.45721,0.78551],[-62.47109,1.0866],[-62.52914,1.08913],[-62.63685,1.43404],[-62.80391,1.59067],[-62.72321,1.7127],[-62.7055,1.94003],[-62.8383,2.01678],[-63.02325,2.01498],[-63.14098,2.17276],[-63.28226,2.15419],[-63.37183,2.21206],[-63.42034,2.1318],[-63.6168,2.10694],[-63.66737,2.01731],[-63.99578,1.97957],[-64.06002,1.93136],[-64.09465,1.61749],[-64.30148,1.46855],[-64.33741,1.36396],[-64.39938,1.39526],[-64.34841,1.50249],[-64.39685,1.52721],[-64.74588,1.22563],[-64.80991,1.31474],[-64.868,1.23227],[-64.96023,1.23053],[-65.02164,1.11538],[-65.1025,1.15702],[-65.1544,1.12536],[-65.18127,0.92353],[-65.32852,0.93193],[-65.42302,0.70835],[-65.53992,0.64926],[-65.59061,0.72228],[-65.49308,0.88249],[-65.58498,1.00929],[-65.87906,0.93306],[-65.96387,0.80987],[-66.06947,0.80543],[-66.08792,0.7595],[-66.31792,0.75543],[-66.85635,1.23063],[-67.08759,1.16732],[-67.09681,1.73301],[-67.15648,1.84926],[-67.27752,1.87616],[-67.32553,2.03012]]]]}},{"type":"Feature","properties":{"sigla":"AP"},"geometry":{"type":"MultiPolygon","coordinates":[[[[-51.18168,4.00889],[-51.25155,4.19171],[-51.48996,4.42333],[-51.54902,4.42478],[-51.64594,4.04496],[-51.92372,3.78387],[-52.19156,3.30176],[-52.33262,3.17268],[-52.38254,2.91101],[-52.55708,2.63609],[-52.55407,2.51669],[-52.94362,2.16921],[-53.09843,2.2161],[-53.26691,2.16912],[-53.28641,2.19701],[-53.27913,2.22371],[-53.2311,2.26904],[-53.33763,2.35397],[-53.5401,2.2576],[-53.74819,2.31321],[-53.72328,2.35375],[-53.76667,2.3793],[-53.97432,2.23282],[-54.18852,2.17919],[-54.43602,2.21026],[-54.60114,2.33754],[-54.66169,2.32736],[-54.68436,2.44719],[-54.87171,2.4341],[-54.76262,2.20262],[-54.81234,2.06312],[-54.75331,1.96748],[-54.74429,1.77611],[-54.30882,1.74136],[-54.19062,1.62522],[-54.14318,1.64092],[-54.08598,1.48861],[-54.00856,1.51998],[-53.84986,1.39215],[-53.64982,1.40857],[-53.65048,1.33654],[-53.53807,1.34118],[-53.53554,1.21259],[-53.42604,1.24303],[-53.3994,1.15872],[-53.45907,1.12785],[-53.41101,0.92966],[-53.10582,0.6843],[-53.17483,0.38204],[-52.93323,-0.1392],[-52.85107,-0.14984],[-52.68965,-0.30259],[-52.70221,-0.45891],[-52.63954,-0.58458],[-52.5227,-0.58875],[-52.53818,-0.85448],[-52.45504,-0.82994],[-52.40269,-0.87682],[-52.42657,-1.05046],[-52.11979,-1.14587],[-52.09993,-1.22616],[-52.05418,-1.23389],[-51.98486,-1.12111],[-51.95661,-1.16885],[-51.80863,-1.15677],[-51.70387,-1.06741],[-51.67874,-0.78492],[-51.2159,-0.11829],[-51.08446,-0.08722],[-50.93371,0.07],[-50.66774,0.18535],[-50.55569,0.30704],[-50.4094,0.62366],[-50.09346,0.7024],[-49.89321,1.19333],[-49.9146,1.69583],[-50.0913,1.79172],[-50.23772,1.80356],[-50.44595,2.19966],[-50.70207,2.13866],[-50.76436,2.44814],[-50.80233,2.50847],[-50.85445,2.49105],[-50.84057,2.63903],[-51.01437,3.04576],[-51.08715,3.39206],[-51.07515,3.89091],[-51.17855,3.94513],[-51.18168,4.00889]]]]}},{"type":"Feature","properties":{"sigla":"BA"},"geometry":{"type":"MultiPolygon","coordinates":[[[[-39.2882,-8.5629],[-39.40783,-8.53823],[-39.69076,-8.66192],[-39.67421,-8.78666],[-39.89425,-8.8313],[-39.87357,-8.93091],[-39.95765,-9.0482],[-40.12833,-9.10919],[-40.25033,-9.0601],[-40.33465,-9.35347],[-40.42051,-9.35216],[-40.62279,-9.4825],[-40.77633,-9.45403],[-40.66703,-9.15867],[-40.81961,-9.07999],[-40.92096,-8.83504],[-41.02086,-8.84316],[-41.12419,-8.75227],[-41.11326,-8.7036],[-41.35794,-8.70723],[-41.54413,-8.96014],[-41.72322,-9.01314],[-41.83758,-9.24186],[-42.24334,-9.28851],[-42.49178,-9.49305],[-42.71966,-9.5308],[-42.76478,-9.61634],[-42.94586,-9.51801],[-42.98747,-9.40093],[-43.1196,-9.37213],[-43.27837,-9.42417],[-43.46127,-9.26137],[-43.57418,-9.31768],[-43.84929,-9.54764],[-43.78452,-9.76197],[-43.65285,-9.83864],[-43.70864,-9.91281],[-43.66188,-10.00393],[-43.69252,-10.07698],[-43.76563,-10.07964],[-43.91682,-10.42399],[-44.01767,-10.40474],[-44.07261,-10.58029],[-44.14631,-10.64101],[-44.26362,-10.62425],[-44.33524,-10.54855],[-44.50206,-10.64949],[-44.58911,-10.632],[-44.66731,-10.68553],[-44.66727,-10.75964],[-44.93081,-10.92834],[-45.07282,-10.84],[-45.24764,-10.82155],[-45.3578,-10.73179],[-45.44691,-10.55592],[-45.39602,-10.44649],[-45.56704,-10.13911],[-45.60276,-10.10757],[-45.72247,-10.1549],[-45.73802,-10.34203],[-45.8243,-10.36556],[-45.8273,-10.43554],[-46.06573,-10.60292],[-46.21055,-10.64926],[-46.19214,-10.71929],[-46.251,-10.75666],[-46.28299,-10.90634],[-46.39851,-10.99398],[-46.47193,-11.19077],[-46.61667,-11.28903],[-46.47889,-11.51597],[-46.08625,-11.62171],[-46.31453,-11.63183],[-46.37416,-11.86818],[-46.17084,-11.90056],[-46.39744,-12.03992],[-46.35196,-12.33698],[-46.256,-12.42391],[-46.25433,-12.49276],[-46.15354,-12.4828],[-46.27952,-12.58447],[-46.30436,-12.94944],[-46.11389,-12.91754],[-46.27295,-13.01452],[-46.33071,-13.2491],[-46.27896,-13.34746],[-46.04174,-13.27224],[-46.24246,-13.42949],[-46.20538,-13.46485],[-46.23507,-13.56247],[-46.16154,-13.59049],[-46.26033,-13.6868],[-46.22317,-13.76903],[-46.28202,-13.79605],[-46.20957,-14.01241],[-46.26535,-14.09752],[-46.06307,-14.19312],[-45.90686,-14.35294],[-45.93492,-14.41489],[-46.01635,-14.41887],[-45.97666,-14.5384],[-46.03699,-14.87364],[-45.96565,-14.9652],[-46.04945,-15.16594],[-46.11881,-15.19178],[-46.07665,-15.26423],[-45.95332,-15.13908],[-45.72139,-15.11163],[-45.56571,-14.94441],[-45.45471,-14.95327],[-45.20515,-14.74429],[-45.08306,-14.74857],[-44.84301,-14.58037],[-44.83282,-14.49939],[-44.56515,-14.33962],[-44.20886,-14.24413],[-43.78279,-14.3388],[-43.8831,-14.65278],[-43.58021,-14.75036],[-43.53099,-14.81485],[-43.43448,-14.72259],[-43.17595,-14.6501],[-42.93848,-14.70758],[-42.44252,-15.06015],[-42.2644,-15.12472],[-42.17292,-15.0855],[-42.09123,-15.18615],[-41.80031,-15.10064],[-41.35603,-15.49983],[-41.33081,-15.74421],[-41.14385,-15.77136],[-40.96188,-15.64843],[-40.88116,-15.69401],[-40.81525,-15.64801],[-40.76728,-15.71361],[-40.70682,-15.66595],[-40.56166,-15.80282],[-40.46025,-15.75327],[-40.37646,-15.82305],[-40.23047,-15.80329],[-40.17034,-15.90705],[-40.08463,-15.89666],[-40.00404,-16.00137],[-39.91572,-16.00014],[-39.85643,-16.11336],[-39.91629,-16.28337],[-39.99035,-16.31298],[-40.06793,-16.45794],[-40.09758,-16.42217],[-40.15946,-16.57984],[-40.27511,-16.57356],[-40.3451,-16.7868],[-40.25741,-16.80607],[-40.28125,-16.90071],[-40.49081,-16.88402],[-40.56963,-17.06143],[-40.54735,-17.28323],[-40.62308,-17.4055],[-40.22354,-17.73359],[-40.1747,-17.8522],[-40.26308,-17.92151],[-40.22202,-17.97995],[-39.67019,-18.34874],[-39.56719,-18.08997],[-39.44274,-17.94441],[-39.27077,-17.87113],[-39.1354,-17.68768],[-39.19444,-17.57895],[-39.2126,-17.16815],[-39.11153,-16.89519],[-39.14101,-16.75667],[-39.00816,-16.375],[-39.01724,-16.25227],[-38.85634,-15.86012],[-38.93647,-15.65641],[-39.06524,-14.7051],[-38.92759,-13.93891],[-38.9975,-13.74407],[-38.88823,-13.64296],[-38.93492,-13.55928],[-38.88797,-13.44785],[-38.96459,-13.28318],[-38.65492,-13.02902],[-38.61586,-12.93084],[-38.56176,-12.91951],[-38.58282,-12.99927],[-38.48873,-13.01409],[-38.34748,-12.95045],[-38.04911,-12.63446],[-37.62203,-11.99497],[-37.3425,-11.44345],[-37.51755,-11.54758],[-37.65058,-11.51834],[-37.68817,-11.56581],[-37.81335,-11.51387],[-37.86553,-11.42802],[-37.97746,-11.39315],[-37.97396,-11.19484],[-38.06255,-11.16339],[-38.10606,-11.01544],[-38.22914,-10.9155],[-38.21155,-10.70873],[-38.0579,-10.70815],[-37.99947,-10.76395],[-37.81353,-10.69062],[-37.85872,-10.42604],[-37.73616,-10.33161],[-37.83138,-10.0005],[-37.99726,-9.91629],[-37.96628,-9.81563],[-38.04221,-9.71564],[-37.98748,-9.64697],[-38.04011,-9.60212],[-38.00302,-9.51458],[-38.20289,-9.41824],[-38.23708,-9.32927],[-38.31826,-9.14059],[-38.29599,-9.02249],[-38.48302,-9.00107],[-38.51906,-8.94795],[-38.47945,-8.84969],[-38.57084,-8.83119],[-38.64032,-8.98687],[-38.79843,-8.79237],[-38.95302,-8.80311],[-39.03206,-8.73694],[-39.2334,-8.70536],[-39.2882,-8.5629]],[[-39.57615,-18.0882],[-39.5812,-18.08254],[-39.57356,-18.08066],[-39.57204,-18.09115],[-39.57615,-18.0882]]]]}},{"type":"Feature","properties":{"sigla":"CE"},"geometry":{"type":"Polygon","coordinates":[[[-40.01804,-2.83698],[-39.99941,-2.84274],[-39.99466,-2.84623],[-39.97591,-2.85467],[-39.97593,-2.85464],[-39.25215,-3.22175],[-38.66651,-3.67437],[-38.47172,-3.70732],[-38.01333,-4.24609],[-37.76963,-4.40116],[-37.59257,-4.62523],[-37.32491,-4.70129],[-37.25157,-4.83204],[-37.63994,-4.92603],[-37.9016,-5.49713],[-38.08234,-5.67217],[-38.04669,-5.73003],[-38.12455,-5.88723],[-38.27663,-6.06957],[-38.44693,-6.08489],[-38.57822,-6.27981],[-38.56401,-6.35579],[-38.60167,-6.38924],[-38.51753,-6.40835],[-38.67277,-6.69683],[-38.61703,-6.79358],[-38.76483,-6.91052],[-38.76462,-6.9935],[-38.66947,-7.04731],[-38.68745,-7.18977],[-38.53421,-7.2934],[-38.71472,-7.62152],[-38.9392,-7.75838],[-38.96574,-7.84459],[-39.01749,-7.81352],[-39.09092,-7.85778],[-39.13526,-7.72299],[-39.30651,-7.66469],[-39.31718,-7.54089],[-39.66219,-7.31021],[-40.24606,-7.43333],[-40.31895,-7.37399],[-40.54808,-7.39231],[-40.48936,-7.1183],[-40.40588,-7.00494],[-40.42814,-6.86387],[-40.37021,-6.80267],[-40.73155,-6.65368],[-40.79175,-6.51248],[-40.78075,-6.32386],[-40.90673,-6.04136],[-40.92513,-5.18111],[-41.13143,-5.04769],[-41.2488,-4.86873],[-41.20764,-4.7764],[-41.24996,-4.75626],[-41.1739,-4.66709],[-41.24216,-4.57115],[-41.09051,-4.16997],[-41.1428,-4.12388],[-41.11401,-4.04028],[-41.25431,-4.03539],[-41.21986,-3.94115],[-41.30044,-3.82594],[-41.2391,-3.71221],[-41.34137,-3.68042],[-41.37023,-3.56679],[-41.29884,-3.49067],[-41.42314,-3.36765],[-41.25628,-3.08766],[-41.32231,-2.92097],[-40.59159,-2.84333],[-40.49942,-2.7841],[-40.01804,-2.83698]]]}},{"type":"Feature","properties":{"sigla":"ES"},"geometry":{"type":"Polygon","coordinates":[[[-40.72383,-20.84178],[-40.95718,-21.30296],[-41.09203,-21.21816],[-41.27667,-21.23975],[-41.71759,-21.12333],[-41.712,-20.87107],[-41.8745,-20.76632],[-41.80838,-20.64375],[-41.85574,-20.61401],[-41.79783,-20.43452],[-41.84673,-20.32899],[-41.75635,-20.20637],[-41.38171,-20.18832],[-41.30751,-19.94785],[-41.18448,-19.88847],[-41.16807,-19.67173],[-41.03643,-19.5683],[-41.04537,-19.48749],[-40.97183,-19.5048],[-40.94447,-19.45963],[-40.92634,-19.18879],[-41.07139,-19.02336],[-41.01797,-18.97305],[-41.24347,-18.84308],[-41.23214,-18.79679],[-41.09707,-18.84183],[-40.91655,-18.81497],[-40.94324,-18.68709],[-41.05271,-18.62824],[-41.02354,-18.45669],[-41.18162,-18.43859],[-41.10405,-18.2128],[-40.89271,-18.1074],[-40.7711,-18.15544],[-40.9022,-17.98699],[-40.83015,-17.9537],[-40.70415,-18.02287],[-40.52664,-17.89146],[-40.22202,-17.97995],[-39.67019,-18.34874],[-39.74656,-18.70567],[-39.68855,-19.30583],[-39.72904,-19.4654],[-39.807,-19.64766],[-39.98307,-19.73886],[-40.13926,-19.94867],[-40.19738,-20.21634],[-40.23723,-20.28907],[-40.28552,-20.27685],[-40.35834,-20.51822],[-40.47241,-20.65418],[-40.62728,-20.84085],[-40.64529,-20.78601],[-40.72383,-20.84178]],[[-40.52662,-20.65518],[-40.52809,-20.66862],[-40.50474,-20.6705],[-40.52445,-20.66345],[-40.52662,-20.65518]],[[-40.53614,-20.68527],[-40.51981,-20.69053],[-40.51655,-20.68532],[-40.54051,-20.67436],[-40.53614,-20.68527]]]}},{"type":"Feature","properties":{"sigla":"GO"},"geometry":{"type":"MultiPolygon","coordinates":[[[[-50.15776,-12.41195],[-50.36546,-12.54565],[-50.51061,-12.86028],[-50.52546,-12.976],[-50.61029,-13.06265],[-50.60674,-13.31043],[-50.76298,-13.52958],[-50.80349,-13.69054],[-50.87132,-13.73266],[-50.83318,-14.08941],[-50.91701,-14.11438],[-50.97479,-14.29042],[-50.9624,-14.52663],[-51.08553,-14.91728],[-51.24213,-15.03496],[-51.32213,-14.97138],[-51.42568,-15.00763],[-51.65161,-15.17944],[-51.6995,-15.48409],[-51.72732,-15.55016],[-51.77581,-15.53721],[-51.76248,-15.64519],[-51.87912,-15.82495],[-51.94635,-15.81012],[-52.00756,-15.88504],[-52.25223,-15.89265],[-52.32727,-16.06815],[-52.52504,-16.14012],[-52.54681,-16.26085],[-52.68643,-16.31504],[-52.6879,-16.39586],[-52.6039,-16.46421],[-52.63526,-16.55119],[-52.73895,-16.58937],[-52.7152,-16.63882],[-52.78548,-16.74075],[-53.03912,-16.91151],[-53.05552,-17.06992],[-53.21814,-17.29886],[-53.25071,-17.61863],[-53.07148,-18.03902],[-53.14274,-18.08139],[-53.06943,-18.34243],[-52.94891,-18.29612],[-52.75838,-18.34835],[-52.96185,-18.54036],[-52.91612,-18.63871],[-52.44862,-18.69051],[-52.34419,-18.82108],[-52.18098,-18.84746],[-52.0151,-18.98232],[-51.93982,-18.96749],[-51.65746,-19.13746],[-51.41999,-19.16607],[-51.08747,-19.30787],[-50.93532,-19.46721],[-50.82621,-19.487],[-50.87487,-19.42237],[-50.81664,-19.28936],[-50.67722,-19.13923],[-50.53704,-19.09894],[-50.50866,-18.93697],[-50.30888,-18.69799],[-50.07957,-18.67178],[-50.01611,-18.59938],[-49.78322,-18.64088],[-49.63965,-18.59976],[-49.53537,-18.49318],[-49.37828,-18.64188],[-49.2052,-18.41133],[-49.07657,-18.41632],[-48.93631,-18.30574],[-48.81589,-18.37919],[-48.56095,-18.32342],[-48.31317,-18.38437],[-48.26195,-18.33142],[-47.98045,-18.44239],[-47.95448,-18.49982],[-47.62573,-18.33383],[-47.56712,-18.2034],[-47.53329,-18.23024],[-47.28276,-18.05777],[-47.37261,-17.82948],[-47.26642,-17.60863],[-47.33048,-17.52438],[-47.49204,-17.52598],[-47.54073,-17.45384],[-47.5112,-17.33128],[-47.44034,-17.34724],[-47.35154,-17.16604],[-47.12616,-16.98011],[-47.19628,-16.90904],[-47.24971,-16.66636],[-47.45814,-16.50176],[-47.32202,-16.23086],[-47.35163,-16.13151],[-47.30837,-16.05008],[-48.27867,-16.0511],[-48.28665,-15.84269],[-48.20562,-15.741],[-48.24037,-15.70653],[-48.19719,-15.50051],[-47.41691,-15.49986],[-47.31543,-15.59397],[-47.37645,-15.97794],[-47.30861,-16.03549],[-47.14151,-15.92619],[-47.08657,-15.9604],[-46.81172,-15.88511],[-46.85435,-15.6199],[-46.94866,-15.55415],[-46.83647,-15.32215],[-46.94049,-15.22919],[-46.88871,-15.11119],[-46.91832,-15.04942],[-46.85646,-15.00982],[-46.62501,-15.08907],[-46.50217,-15.05181],[-46.56546,-14.78593],[-46.50291,-14.70397],[-46.32177,-14.81413],[-46.28641,-14.9277],[-46.08771,-14.93595],[-46.03699,-14.87364],[-45.97666,-14.5384],[-46.01635,-14.41887],[-45.93492,-14.41489],[-45.90686,-14.35294],[-46.06307,-14.19312],[-46.26535,-14.09752],[-46.20957,-14.01241],[-46.28202,-13.79605],[-46.22317,-13.76903],[-46.26033,-13.6868],[-46.16154,-13.59049],[-46.23507,-13.56247],[-46.20538,-13.46485],[-46.24246,-13.42949],[-46.04174,-13.27224],[-46.27896,-13.34746],[-46.33071,-13.2491],[-46.27295,-13.01452],[-46.11389,-12.91754],[-46.36344,-12.99079],[-46.36577,-12.86442],[-46.41719,-12.82304],[-46.45422,-12.97072],[-46.75018,-12.96872],[-46.97843,-13.13114],[-47.22872,-13.19444],[-47.28171,-13.26448],[-47.3773,-13.23018],[-47.42653,-13.28901],[-47.47845,-13.18471],[-47.56263,-13.1838],[-47.56091,-13.12424],[-47.63434,-13.10407],[-47.66846,-13.20897],[-47.62229,-13.36723],[-47.67854,-13.46728],[-47.82355,-13.31143],[-47.96588,-13.31483],[-48.06201,-13.23497],[-48.16496,-13.30536],[-48.17349,-13.14767],[-48.44127,-13.29194],[-48.50842,-13.12842],[-48.58596,-13.31718],[-48.60165,-13.05989],[-48.7303,-12.98936],[-48.84632,-12.80938],[-48.97518,-12.95677],[-49.07763,-12.90328],[-49.11863,-12.78993],[-49.23696,-12.88354],[-49.33701,-13.06587],[-49.36904,-13.27417],[-49.91291,-12.96556],[-50.29218,-12.83949],[-50.29964,-12.68047],[-50.19271,-12.56389],[-50.22926,-12.53194],[-50.15776,-12.41195]]]]}},{"type":"Feature","properties":{"sigla":"MA"},"geometry":{"type":"MultiPolygon","coordinates":[[[[-47.03102,-8.98549],[-46.99212,-8.879],[-46.91302,-8.84743],[-46.91597,-8.59538],[-46.80641,-8.39858],[-46.54421,-8.31893],[-46.46619,-8.0658],[-46.60425,-7.89579],[-47.04307,-8.0532],[-47.50428,-7.43625],[-47.59044,-7.43915],[-47.48544,-7.36672],[-47.49936,-7.29347],[-47.58867,-7.26371],[-47.64808,-7.30297],[-47.74578,-7.20084],[-47.52948,-6.97615],[-47.37839,-6.27048],[-47.49969,-5.52524],[-47.74179,-5.38093],[-47.84333,-5.37584],[-47.88514,-5.26033],[-48.17811,-5.26041],[-48.36347,-5.16801],[-48.53858,-5.20455],[-48.60569,-5.33613],[-48.679,-5.30546],[-48.75471,-5.3488],[-47.78949,-4.58515],[-47.67951,-4.60824],[-47.61068,-4.55597],[-47.47302,-4.31407],[-47.37205,-4.24445],[-47.31847,-4.04656],[-47.08769,-3.85509],[-47.03736,-3.56253],[-46.94846,-3.47688],[-46.94205,-3.3749],[-46.81295,-3.30919],[-46.74739,-3.12053],[-46.67944,-3.09319],[-46.67923,-2.88138],[-46.57539,-2.84104],[-46.66352,-2.69385],[-46.50458,-2.61457],[-46.49166,-2.53538],[-46.41597,-2.52906],[-46.40837,-2.36981],[-46.46445,-2.371],[-46.43192,-2.23947],[-46.28022,-2.15256],[-46.21816,-1.91288],[-46.2149,-1.81813],[-46.32356,-1.7652],[-46.15321,-1.67556],[-46.17621,-1.47502],[-46.10384,-1.33661],[-46.16248,-1.27797],[-46.10374,-1.20175],[-45.96468,-1.04626],[-45.99395,-1.16209],[-45.94183,-1.13821],[-45.94806,-1.23829],[-45.84586,-1.04509],[-45.90791,-1.17626],[-45.86136,-1.15121],[-45.90432,-1.22257],[-45.84712,-1.20905],[-45.86204,-1.27055],[-45.79626,-1.15902],[-45.81443,-1.25472],[-45.83913,-1.28354],[-45.77961,-1.26461],[-45.69118,-1.12765],[-45.73803,-1.23703],[-45.69483,-1.26758],[-45.72821,-1.34071],[-45.69069,-1.34346],[-45.67798,-1.30021],[-45.61555,-1.11556],[-45.64033,-1.31059],[-45.63244,-1.34835],[-45.68846,-1.36012],[-45.71867,-1.40368],[-45.62871,-1.36543],[-45.57992,-1.25706],[-45.58839,-1.30735],[-45.52662,-1.26669],[-45.55429,-1.3179],[-45.55761,-1.3289],[-45.50205,-1.29112],[-45.51343,-1.39104],[-45.51136,-1.38881],[-45.50673,-1.39056],[-45.51514,-1.40605],[-45.40975,-1.2893],[-45.48807,-1.43125],[-45.48077,-1.5334],[-45.44318,-1.54273],[-45.45987,-1.47626],[-45.41597,-1.41527],[-45.4189,-1.47113],[-45.40557,-1.45212],[-45.40317,-1.4591],[-45.40475,-1.45203],[-45.40351,-1.44919],[-45.33885,-1.34982],[-45.33419,-1.35694],[-45.34293,-1.30727],[-45.30017,-1.4222],[-45.38785,-1.4814],[-45.34529,-1.46954],[-45.37438,-1.54899],[-45.32635,-1.50596],[-45.36459,-1.67436],[-45.37154,-1.6852],[-45.33841,-1.73244],[-45.30903,-1.60027],[-45.24757,-1.62234],[-45.14317,-1.46267],[-45.1286,-1.52915],[-45.10473,-1.40755],[-45.09691,-1.4682],[-45.09147,-1.50309],[-45.06867,-1.46603],[-45.07015,-1.45305],[-45.06383,-1.4806],[-44.94638,-1.49155],[-44.90435,-1.48979],[-44.86874,-1.42525],[-44.82487,-1.41315],[-44.89758,-1.61339],[-44.82111,-1.57497],[-44.79783,-1.65917],[-44.76185,-1.56107],[-44.76971,-1.61094],[-44.75731,-1.62554],[-44.69794,-1.55292],[-44.69777,-1.59322],[-44.67312,-1.56596],[-44.6569,-1.66597],[-44.72274,-1.67098],[-44.72269,-1.67687],[-44.73737,-1.67264],[-44.73714,-1.67208],[-44.77987,-1.67533],[-44.7561,-1.72814],[-44.69676,-1.73765],[-44.81366,-1.81454],[-44.72646,-1.801],[-44.64657,-1.76427],[-44.6547,-1.72052],[-44.59341,-1.74367],[-44.60268,-1.78308],[-44.57597,-1.77958],[-44.60371,-1.78744],[-44.61375,-1.83011],[-44.59852,-1.85472],[-44.56983,-1.79713],[-44.56671,-1.85213],[-44.52946,-1.83788],[-44.59925,-1.89701],[-44.52277,-1.88205],[-44.46555,-2.01574],[-44.48135,-2.07475],[-44.44402,-2.05746],[-44.4513,-2.07038],[-44.46838,-2.07588],[-44.48146,-2.07517],[-44.4992,-2.14142],[-44.41529,-2.22357],[-44.41445,-2.22791],[-44.41363,-2.22521],[-44.40939,-2.22935],[-44.35553,-2.33877],[-44.41239,-2.41271],[-44.32558,-2.49968],[-44.02244,-2.39791],[-44.02188,-2.44988],[-44.07242,-2.43623],[-44.10117,-2.4643],[-43.95843,-2.48191],[-43.99958,-2.5783],[-43.82681,-2.36093],[-43.7474,-2.37298],[-43.72815,-2.28761],[-43.61477,-2.21901],[-43.49154,-2.37116],[-43.30408,-2.3385],[-42.74424,-2.55743],[-42.69472,-2.64768],[-42.73749,-2.55038],[-42.47875,-2.71172],[-42.22781,-2.66675],[-42.05022,-2.68876],[-42.0241,-2.7583],[-42.00589,-2.71466],[-41.81373,-2.73896],[-41.86511,-2.87453],[-41.79641,-2.9662],[-41.93867,-3.18701],[-42.11544,-3.26197],[-42.09975,-3.31103],[-42.20399,-3.43541],[-42.45831,-3.4853],[-42.49798,-3.44738],[-42.67536,-3.67524],[-42.72582,-3.90965],[-42.9888,-4.23369],[-42.96292,-4.37605],[-42.85005,-4.48099],[-42.9542,-4.6891],[-42.9494,-4.79033],[-42.8544,-4.93665],[-42.79756,-5.18285],[-42.82592,-5.34657],[-43.09861,-5.63282],[-43.0746,-6.05435],[-42.86674,-6.23428],[-42.82894,-6.33704],[-42.91938,-6.66992],[-43.00078,-6.75408],[-43.2443,-6.76597],[-43.41964,-6.84345],[-43.71562,-6.69881],[-44.03299,-6.76002],[-44.0693,-6.82099],[-44.11393,-6.80467],[-44.3058,-7.11678],[-44.56366,-7.22714],[-44.68757,-7.39414],[-44.81632,-7.36081],[-44.92403,-7.4699],[-45.33935,-7.57986],[-45.45558,-7.67028],[-45.76522,-8.60918],[-45.93458,-8.7787],[-45.99387,-8.92647],[-45.89326,-9.34178],[-45.78341,-9.4797],[-45.841,-9.5619],[-45.84186,-9.94115],[-45.94595,-10.25816],[-46.00313,-10.26052],[-46.02785,-10.17646],[-46.16422,-10.21249],[-46.36746,-10.1684],[-46.45599,-10.04947],[-46.49322,-9.82702],[-46.64699,-9.72995],[-46.5374,-9.55738],[-46.56055,-9.48363],[-46.66555,-9.39152],[-46.76294,-9.40855],[-46.84663,-9.29202],[-46.82236,-9.19864],[-46.92588,-9.13454],[-46.92223,-9.0663],[-47.0683,-9.06348],[-47.03102,-8.98549]],[[-45.86204,-1.27055],[-45.86346,-1.27854],[-45.85978,-1.28363],[-45.86204,-1.27055]],[[-45.77961,-1.26461],[-45.79697,-1.27688],[-45.77608,-1.27483],[-45.77961,-1.26461]],[[-45.73803,-1.23703],[-45.74558,-1.237],[-45.74416,-1.24096],[-45.73803,-1.23703]],[[-45.72821,-1.34071],[-45.72962,-1.34589],[-45.72107,-1.3502],[-45.72821,-1.34071]],[[-45.48077,-1.5334],[-45.48725,-1.52998],[-45.48069,-1.53663],[-45.48077,-1.5334]],[[-45.4189,-1.47113],[-45.41051,-1.48446],[-45.40481,-1.48691],[-45.4189,-1.47113]],[[-45.33419,-1.35694],[-45.33072,-1.36407],[-45.32922,-1.36131],[-45.33419,-1.35694]],[[-45.36459,-1.67436],[-45.37297,-1.67488],[-45.37481,-1.67714],[-45.36459,-1.67436]],[[-45.37154,-1.6852],[-45.3753,-1.69046],[-45.37159,-1.70069],[-45.37154,-1.6852]],[[-45.09147,-1.50309],[-45.09809,-1.5117],[-45.09513,-1.51325],[-45.09147,-1.50309]],[[-44.69777,-1.59322],[-44.69492,-1.59676],[-44.6918,-1.5995],[-44.69197,-1.59494],[-44.69777,-1.59322]],[[-44.77987,-1.67533],[-44.78386,-1.67059],[-44.79327,-1.68436],[-44.77987,-1.67533]],[[-44.72646,-1.801],[-44.75648,-1.81408],[-44.75917,-1.81804],[-44.73573,-1.81183],[-44.72646,-1.801]],[[-44.59852,-1.85472],[-44.61866,-1.86527],[-44.6391,-1.8574],[-44.6193,-1.8683],[-44.59852,-1.85472]],[[-44.56671,-1.85213],[-44.57509,-1.85772],[-44.57912,-1.85917],[-44.57143,-1.85997],[-44.56671,-1.85213]],[[-44.64944,-1.78337],[-44.65156,-1.78733],[-44.6476,-1.79069],[-44.64944,-1.78337]],[[-44.78402,-1.74541],[-44.78904,-1.74431],[-44.78744,-1.7499],[-44.78402,-1.74541]],[[-44.95181,-1.49949],[-44.95075,-1.50559],[-44.94258,-1.51698],[-44.94071,-1.5128],[-44.95181,-1.49949]],[[-45.06479,-1.50223],[-45.07831,-1.51844],[-45.06523,-1.50688],[-45.06479,-1.50223]],[[-45.31048,-1.41381],[-45.31547,-1.41143],[-45.31336,-1.41694],[-45.31048,-1.41381]],[[-44.56934,-1.91975],[-44.56101,-1.92274],[-44.5663,-1.91773],[-44.56934,-1.91975]],[[-44.69331,-1.81627],[-44.6877,-1.80755],[-44.69232,-1.80753],[-44.69331,-1.81627]],[[-44.81338,-1.80211],[-44.80701,-1.80695],[-44.81009,-1.80153],[-44.81338,-1.80211]],[[-44.83421,-1.82264],[-44.84567,-1.82836],[-44.82021,-1.8222],[-44.83421,-1.82264]],[[-45.12258,-1.54631],[-45.11267,-1.54401],[-45.11544,-1.54194],[-45.12258,-1.54631]],[[-45.36713,-1.4248],[-45.36001,-1.42778],[-45.36159,-1.42494],[-45.36713,-1.4248]],[[-45.38868,-1.5414],[-45.3794,-1.53982],[-45.3838,-1.53711],[-45.38868,-1.5414]],[[-45.38981,-1.68975],[-45.38742,-1.67994],[-45.3965,-1.69398],[-45.38981,-1.68975]],[[-45.57567,-1.33573],[-45.57239,-1.33999],[-45.57068,-1.32956],[-45.57357,-1.32935],[-45.57567,-1.33573]],[[-45.59484,-1.33919],[-45.58458,-1.32492],[-45.58817,-1.31174],[-45.58871,-1.32822],[-45.59484,-1.33919]],[[-45.65941,-1.29696],[-45.65457,-1.30811],[-45.65329,-1.31105],[-45.65827,-1.29105],[-45.65941,-1.29696]],[[-45.74672,-1.37203],[-45.75393,-1.3783],[-45.74402,-1.3744],[-45.74672,-1.37203]],[[-45.7995,-1.3315],[-45.80231,-1.33832],[-45.80076,-1.3441],[-45.79595,-1.32287],[-45.7995,-1.3315]],[[-45.82299,-1.24863],[-45.81391,-1.22721],[-45.82254,-1.24137],[-45.82299,-1.24863]],[[-45.82244,-1.31057],[-45.81992,-1.31232],[-45.81936,-1.29786],[-45.8203,-1.30174],[-45.82244,-1.31057]],[[-45.88752,-1.18035],[-45.88471,-1.18337],[-45.87787,-1.17806],[-45.88752,-1.18035]],[[-45.90231,-1.24253],[-45.90662,-1.2497],[-45.90306,-1.25964],[-45.90064,-1.25766],[-45.90231,-1.24253]]],[[[-47.03133,-8.98013],[-47.03102,-8.98549],[-47.03296,-8.98232],[-47.03133,-8.98013]]],[[[-44.61375,-1.83011],[-44.60766,-1.82064],[-44.60232,-1.83368],[-44.60591,-1.83144],[-44.61375,-1.83011]]],[[[-45.64033,-1.31059],[-45.63782,-1.30438],[-45.63627,-1.29977],[-45.63591,-1.31984],[-45.64033,-1.31059]]],[[[-44.00926,-2.39959],[-44.00304,-2.39306],[-43.99997,-2.39053],[-43.99699,-2.40091],[-44.00926,-2.39959]]],[[[-44.4451,-2.02506],[-44.45706,-2.02974],[-44.44581,-2.00761],[-44.43857,-2.01851],[-44.4451,-2.02506]]],[[[-44.45765,-2.13373],[-44.45343,-2.13024],[-44.45113,-2.133],[-44.45765,-2.13373]]],[[[-44.48021,-2.1061],[-44.46341,-2.10085],[-44.47233,-2.12492],[-44.48536,-2.11335],[-44.48021,-2.1061]]],[[[-44.74924,-1.69203],[-44.73484,-1.68216],[-44.72583,-1.692],[-44.74081,-1.70102],[-44.74924,-1.69203]]],[[[-44.72881,-1.56209],[-44.75553,-1.58292],[-44.74261,-1.5376],[-44.72881,-1.56209]]],[[[-44.80181,-1.52924],[-44.79217,-1.52614],[-44.77331,-1.49849],[-44.7719,-1.46195],[-44.75302,-1.45777],[-44.73672,-1.51159],[-44.77442,-1.52716],[-44.77354,-1.50438],[-44.80352,-1.56472],[-44.80181,-1.52924]]],[[[-44.75686,-1.59281],[-44.75532,-1.58709],[-44.75416,-1.59002],[-44.75686,-1.59281]]],[[[-44.77573,-1.56885],[-44.78335,-1.57186],[-44.77208,-1.56376],[-44.77573,-1.56885]]],[[[-44.83097,-1.56042],[-44.81948,-1.56205],[-44.81659,-1.57082],[-44.82396,-1.57009],[-44.83097,-1.56042]]],[[[-44.97073,-1.33546],[-44.97226,-1.28346],[-44.92164,-1.29835],[-44.90886,-1.30408],[-44.91572,-1.30371],[-44.90891,-1.30595],[-44.90779,-1.31072],[-44.90559,-1.30555],[-44.84226,-1.33396],[-44.98279,-1.4093],[-45.02802,-1.33856],[-44.97073,-1.33546]],[[-44.92164,-1.29835],[-44.92273,-1.30393],[-44.91925,-1.30365],[-44.92164,-1.29835]],[[-44.90933,-1.32544],[-44.90973,-1.329],[-44.90504,-1.32945],[-44.90933,-1.32544]],[[-44.92428,-1.33925],[-44.92418,-1.34576],[-44.92188,-1.34317],[-44.92428,-1.33925]]],[[[-45.00205,-1.40122],[-44.99783,-1.41018],[-45.01546,-1.39552],[-45.01089,-1.39685],[-45.00205,-1.40122]]],[[[-45.03612,-1.39037],[-45.04881,-1.34903],[-45.0431,-1.34263],[-45.0328,-1.38628],[-45.03612,-1.39037]]],[[[-45.04776,-1.32736],[-45.04328,-1.33908],[-45.05001,-1.34418],[-45.05448,-1.32977],[-45.04776,-1.32736]]],[[[-45.09005,-1.41925],[-45.09305,-1.43153],[-45.09672,-1.41862],[-45.06857,-1.36748],[-45.09005,-1.41925]]],[[[-45.08919,-1.43169],[-45.08711,-1.42167],[-45.07911,-1.41896],[-45.08218,-1.44137],[-45.08919,-1.43169]]],[[[-45.1358,-1.48863],[-45.13291,-1.4852],[-45.13479,-1.49403],[-45.1358,-1.48863]]],[[[-45.13913,-1.46854],[-45.1364,-1.46465],[-45.13627,-1.47607],[-45.13829,-1.47074],[-45.13913,-1.46854]]],[[[-45.39762,-1.39538],[-45.39717,-1.40661],[-45.40636,-1.41829],[-45.41262,-1.40867],[-45.39762,-1.39538]]],[[[-45.54191,-1.19502],[-45.52406,-1.22338],[-45.59289,-1.24632],[-45.57001,-1.18975],[-45.54191,-1.19502]]],[[[-45.55867,-1.2604],[-45.55596,-1.25721],[-45.5551,-1.26079],[-45.55867,-1.2604]]],[[[-45.6263,-1.31855],[-45.62371,-1.32719],[-45.62812,-1.3394],[-45.63141,-1.31473],[-45.6263,-1.31855]]],[[[-45.65375,-1.361],[-45.64307,-1.35836],[-45.63909,-1.36213],[-45.64687,-1.36423],[-45.65375,-1.361]]],[[[-45.68521,-1.19606],[-45.65794,-1.22171],[-45.683,-1.26168],[-45.69955,-1.23403],[-45.68521,-1.19606]]],[[[-45.76409,-1.18798],[-45.76179,-1.18555],[-45.76082,-1.18925],[-45.76409,-1.18798]]],[[[-45.7942,-1.18835],[-45.77636,-1.19619],[-45.78585,-1.2276],[-45.79585,-1.2134],[-45.7942,-1.18835]]],[[[-45.79064,-1.24734],[-45.80148,-1.24191],[-45.79423,-1.23452],[-45.78792,-1.23511],[-45.79064,-1.24734]]],[[[-45.79844,-1.12664],[-45.80378,-1.15084],[-45.81661,-1.14762],[-45.81665,-1.12136],[-45.79844,-1.12664]]]]}},{"type":"Feature","properties":{"sigla":"MG"},"geometry":{"type":"MultiPolygon","coordinates":[[[[-44.20886,-14.24413],[-44.56515,-14.33962],[-44.83282,-14.49939],[-44.84301,-14.58037],[-45.08306,-14.74857],[-45.20515,-14.74429],[-45.45471,-14.95327],[-45.56571,-14.94441],[-45.72139,-15.11163],[-45.95332,-15.13908],[-46.07665,-15.26423],[-46.11881,-15.19178],[-46.04945,-15.16594],[-45.96565,-14.9652],[-46.03699,-14.87364],[-46.08771,-14.93595],[-46.28641,-14.9277],[-46.32177,-14.81413],[-46.50291,-14.70397],[-46.56546,-14.78593],[-46.50217,-15.05181],[-46.62501,-15.08907],[-46.85646,-15.00982],[-46.91832,-15.04942],[-46.88871,-15.11119],[-46.94049,-15.22919],[-46.83647,-15.32215],[-46.94866,-15.55415],[-46.85435,-15.6199],[-46.81172,-15.88511],[-47.08657,-15.9604],[-47.14151,-15.92619],[-47.30861,-16.03549],[-47.30837,-16.05008],[-47.35163,-16.13151],[-47.32202,-16.23086],[-47.45814,-16.50176],[-47.24971,-16.66636],[-47.19628,-16.90904],[-47.12616,-16.98011],[-47.35154,-17.16604],[-47.44034,-17.34724],[-47.5112,-17.33128],[-47.54073,-17.45384],[-47.49204,-17.52598],[-47.33048,-17.52438],[-47.26642,-17.60863],[-47.37261,-17.82948],[-47.28276,-18.05777],[-47.53329,-18.23024],[-47.56712,-18.2034],[-47.62573,-18.33383],[-47.95448,-18.49982],[-47.98045,-18.44239],[-48.26195,-18.33142],[-48.31317,-18.38437],[-48.56095,-18.32342],[-48.81589,-18.37919],[-48.93631,-18.30574],[-49.07657,-18.41632],[-49.2052,-18.41133],[-49.37828,-18.64188],[-49.53537,-18.49318],[-49.63965,-18.59976],[-49.78322,-18.64088],[-50.01611,-18.59938],[-50.07957,-18.67178],[-50.30888,-18.69799],[-50.50866,-18.93697],[-50.53704,-19.09894],[-50.67722,-19.13923],[-50.81664,-19.28936],[-50.87487,-19.42237],[-50.82621,-19.487],[-50.93532,-19.46721],[-50.92751,-19.58733],[-50.98707,-19.58904],[-51.04545,-19.72858],[-50.99999,-20.08491],[-50.47142,-19.77918],[-50.35231,-19.86412],[-49.8908,-19.94325],[-49.55099,-19.90537],[-49.43991,-19.98033],[-49.25025,-19.97033],[-49.30806,-20.10151],[-49.21719,-20.30323],[-49.1303,-20.27967],[-49.06744,-20.15397],[-48.99178,-20.16492],[-48.96843,-20.39327],[-48.89886,-20.44072],[-48.82274,-20.16143],[-48.24591,-20.14047],[-48.24048,-20.02887],[-48.11162,-20.14342],[-48.01939,-20.11968],[-47.97551,-20.03489],[-47.89392,-20.12336],[-47.85932,-19.99252],[-47.70378,-19.97943],[-47.63552,-20.0479],[-47.46592,-19.96374],[-47.43867,-20.04919],[-47.25659,-20.16572],[-47.29133,-20.44883],[-47.15392,-20.51925],[-47.09692,-20.64385],[-47.23959,-20.8848],[-47.14327,-20.9819],[-47.11833,-21.18529],[-46.9976,-21.35035],[-47.01078,-21.4218],[-46.76425,-21.35957],[-46.7055,-21.40435],[-46.66525,-21.36116],[-46.61481,-21.44098],[-46.5088,-21.46941],[-46.5171,-21.6114],[-46.62114,-21.67505],[-46.69051,-21.83646],[-46.61302,-22.00911],[-46.72281,-22.07652],[-46.60006,-22.13425],[-46.6732,-22.17563],[-46.7228,-22.30613],[-46.6661,-22.4139],[-46.40669,-22.54005],[-46.3926,-22.66248],[-46.47748,-22.6989],[-46.33476,-22.7597],[-46.35918,-22.89563],[-46.14419,-22.8578],[-46.13863,-22.92226],[-45.90943,-22.81678],[-45.88846,-22.87532],[-45.79082,-22.85764],[-45.75447,-22.79241],[-45.71314,-22.81429],[-45.72783,-22.72317],[-45.81942,-22.72206],[-45.69355,-22.65121],[-45.71647,-22.5781],[-45.66045,-22.57848],[-45.66456,-22.65016],[-45.57627,-22.60185],[-45.58393,-22.65119],[-45.53946,-22.65208],[-45.47134,-22.59002],[-45.39955,-22.65263],[-45.12802,-22.49661],[-44.8088,-22.40477],[-44.53278,-22.32993],[-44.45602,-22.25675],[-44.23505,-22.2657],[-43.76557,-22.06242],[-43.56217,-22.0873],[-43.24613,-22.00654],[-43.13066,-22.02948],[-43.13646,-22.10881],[-43.073,-22.09335],[-42.88209,-21.95962],[-42.27113,-21.71471],[-42.36857,-21.61912],[-42.25235,-21.48978],[-42.2922,-21.45954],[-42.18928,-21.2494],[-42.20808,-21.17772],[-42.08006,-21.0352],[-42.15126,-20.97389],[-41.97626,-20.93501],[-41.8745,-20.76632],[-41.80838,-20.64375],[-41.85574,-20.61401],[-41.79783,-20.43452],[-41.84673,-20.32899],[-41.75635,-20.20637],[-41.38171,-20.18832],[-41.30751,-19.94785],[-41.18448,-19.88847],[-41.16807,-19.67173],[-41.03643,-19.5683],[-41.04537,-19.48749],[-40.97183,-19.5048],[-40.94447,-19.45963],[-40.92634,-19.18879],[-41.07139,-19.02336],[-41.01797,-18.97305],[-41.24347,-18.84308],[-41.23214,-18.79679],[-41.09707,-18.84183],[-40.91655,-18.81497],[-40.94324,-18.68709],[-41.05271,-18.62824],[-41.02354,-18.45669],[-41.18162,-18.43859],[-41.10405,-18.2128],[-40.89271,-18.1074],[-40.7711,-18.15544],[-40.9022,-17.98699],[-40.83015,-17.9537],[-40.70415,-18.02287],[-40.52664,-17.89146],[-40.22202,-17.97995],[-40.26308,-17.92151],[-40.1747,-17.8522],[-40.22354,-17.73359],[-40.62308,-17.4055],[-40.54735,-17.28323],[-40.56963,-17.06143],[-40.49081,-16.88402],[-40.28125,-16.90071],[-40.25741,-16.80607],[-40.3451,-16.7868],[-40.27511,-16.57356],[-40.15946,-16.57984],[-40.09758,-16.42217],[-40.06793,-16.45794],[-39.99035,-16.31298],[-39.91629,-16.28337],[-39.85643,-16.11336],[-39.91572,-16.00014],[-40.00404,-16.00137],[-40.08463,-15.89666],[-40.17034,-15.90705],[-40.23047,-15.80329],[-40.37646,-15.82305],[-40.46025,-15.75327],[-40.56166,-15.80282],[-40.70682,-15.66595],[-40.76728,-15.71361],[-40.81525,-15.64801],[-40.88116,-15.69401],[-40.96188,-15.64843],[-41.14385,-15.77136],[-41.33081,-15.74421],[-41.35603,-15.49983],[-41.80031,-15.10064],[-42.09123,-15.18615],[-42.17292,-15.0855],[-42.2644,-15.12472],[-42.44252,-15.06015],[-42.93848,-14.70758],[-43.17595,-14.6501],[-43.43448,-14.72259],[-43.53099,-14.81485],[-43.58021,-14.75036],[-43.8831,-14.65278],[-43.78279,-14.3388],[-44.20886,-14.24413]]]]}},{"type":"Feature","properties":{"sigla":"MS"},"geometry":{"type":"Polygon","coordinates":[[[-53.87406,-17.92178],[-53.87182,-17.92142],[-53.69168,-18.01323],[-53.61465,-17.97781],[-53.47207,-18.0387],[-53.4299,-17.98354],[-53.07148,-18.03902],[-53.14274,-18.08139],[-53.06943,-18.34243],[-52.94891,-18.29612],[-52.75838,-18.34835],[-52.96185,-18.54036],[-52.91612,-18.63871],[-52.44862,-18.69051],[-52.34419,-18.82108],[-52.18098,-18.84746],[-52.0151,-18.98232],[-51.93982,-18.96749],[-51.65746,-19.13746],[-51.41999,-19.16607],[-51.08747,-19.30787],[-50.93532,-19.46721],[-50.92751,-19.58733],[-50.98707,-19.58904],[-51.04545,-19.72858],[-50.99999,-20.08491],[-51.06867,-20.24958],[-51.3429,-20.35534],[-51.58647,-20.63433],[-51.6344,-20.75438],[-51.61849,-20.93195],[-51.87536,-21.13568],[-51.86719,-21.35119],[-51.9674,-21.50129],[-52.09275,-21.53758],[-52.07598,-21.71438],[-52.30831,-21.95144],[-52.37671,-22.1062],[-52.4925,-22.21948],[-52.99807,-22.49271],[-53.10467,-22.62145],[-53.20144,-22.72829],[-53.6069,-22.95086],[-53.7301,-23.31723],[-53.98233,-23.45953],[-54.09932,-23.94599],[-54.2871,-24.06951],[-54.43674,-23.90615],[-54.67081,-23.81171],[-55.06003,-23.99213],[-55.41866,-23.95894],[-55.43425,-23.71728],[-55.53654,-23.62547],[-55.56141,-23.48237],[-55.50562,-23.37636],[-55.55578,-23.3185],[-55.52333,-23.19652],[-55.59667,-23.15208],[-55.66485,-22.85061],[-55.61355,-22.66031],[-55.74775,-22.5001],[-55.74112,-22.39184],[-55.85243,-22.28148],[-56.20941,-22.2764],[-56.36292,-22.16992],[-56.39232,-22.07425],[-56.50176,-22.09531],[-56.63499,-22.26238],[-56.70186,-22.21836],[-56.84115,-22.30201],[-56.99638,-22.22281],[-57.37221,-22.23113],[-57.57625,-22.17535],[-57.61242,-22.09448],[-57.80227,-22.15005],[-57.99128,-22.09025],[-57.91219,-21.87909],[-57.96911,-21.84633],[-57.91328,-21.79148],[-57.94547,-21.74241],[-57.8819,-21.68811],[-57.96622,-21.52503],[-57.85404,-21.33833],[-57.92051,-21.27948],[-57.84955,-21.21934],[-57.86707,-21.04106],[-57.81883,-20.94213],[-57.9277,-20.89751],[-57.85897,-20.82636],[-57.95987,-20.789],[-57.86247,-20.74122],[-57.91926,-20.66366],[-57.98459,-20.70121],[-57.99643,-20.43481],[-58.08362,-20.37207],[-58.09406,-20.25503],[-58.16048,-20.26214],[-58.12167,-20.19463],[-58.16681,-20.17129],[-57.95969,-20.02186],[-57.90287,-20.04058],[-57.8587,-19.96993],[-58.13116,-19.758],[-57.78355,-19.03301],[-57.69362,-19.01042],[-57.71914,-18.89854],[-57.76602,-18.89879],[-57.55712,-18.23985],[-57.45329,-18.23067],[-57.57422,-18.1314],[-57.71992,-17.82737],[-57.68258,-17.80751],[-57.79496,-17.55994],[-57.75176,-17.56389],[-57.71154,-17.54367],[-57.68377,-17.7152],[-57.45193,-17.9022],[-57.37698,-17.82572],[-57.04438,-17.72988],[-56.98182,-17.57979],[-56.87544,-17.53253],[-56.82834,-17.39073],[-56.73332,-17.30942],[-56.64718,-17.33902],[-56.50124,-17.28589],[-56.4428,-17.33027],[-56.11259,-17.16676],[-55.93884,-17.27663],[-55.64076,-17.33897],[-55.52357,-17.48073],[-55.29215,-17.5421],[-55.12674,-17.65228],[-54.86035,-17.62341],[-54.58115,-17.46756],[-54.4808,-17.48722],[-54.38243,-17.57109],[-54.38728,-17.63149],[-54.30191,-17.66121],[-54.07653,-17.61456],[-54.03712,-17.486],[-53.70815,-17.22772],[-53.70565,-17.66194],[-53.88787,-17.74855],[-53.95524,-17.88257],[-53.87406,-17.92178]]]}},{"type":"Feature","properties":{"sigla":"MT"},"geometry":{"type":"Polygon","coordinates":[[[-60.36083,-13.29932],[-60.26796,-13.14457],[-60.28245,-13.08015],[-60.08599,-12.8983],[-60.0682,-12.6156],[-59.93468,-12.48668],[-59.85531,-12.47819],[-59.77381,-12.34055],[-59.89178,-12.24505],[-59.98463,-11.91395],[-60.10823,-11.83918],[-60.11435,-11.59106],[-59.9201,-11.39761],[-59.97624,-11.12199],[-60.20426,-11.11173],[-60.30071,-11.05676],[-60.34743,-11.10864],[-60.45952,-10.98946],[-61.54971,-10.9857],[-61.51002,-10.79393],[-61.47329,-10.79712],[-61.46124,-10.41952],[-61.59965,-10.15444],[-61.50738,-9.8607],[-61.57383,-9.71728],[-61.47706,-9.62691],[-61.63201,-9.26624],[-61.52588,-9.24367],[-61.5544,-9.08987],[-61.46811,-8.91714],[-61.58242,-8.79831],[-58.41535,-8.79246],[-58.32555,-8.71961],[-58.4369,-8.70303],[-58.2865,-8.12813],[-58.38242,-7.83871],[-58.20159,-7.62054],[-58.21249,-7.45808],[-58.13636,-7.35609],[-57.97206,-7.53421],[-57.82831,-7.97252],[-57.64275,-8.21329],[-57.68633,-8.41368],[-57.59242,-8.75609],[-57.42706,-8.78285],[-57.38023,-8.88074],[-57.19234,-8.92967],[-57.03873,-9.0979],[-57.05731,-9.1838],[-56.81959,-9.24595],[-56.7606,-9.40461],[-56.67137,-9.36701],[-50.22435,-9.84075],[-50.39169,-10.13363],[-50.41783,-10.35586],[-50.60299,-10.66053],[-50.60899,-11.06705],[-50.74159,-11.45449],[-50.73971,-11.5382],[-50.65606,-11.60042],[-50.72158,-11.73929],[-50.63882,-11.88415],[-50.68641,-12.20173],[-50.64384,-12.2223],[-50.61779,-12.42857],[-50.70602,-12.60928],[-50.64646,-12.6507],[-50.62226,-12.81931],[-50.51061,-12.86028],[-50.52546,-12.976],[-50.61029,-13.06265],[-50.60674,-13.31043],[-50.76298,-13.52958],[-50.80349,-13.69054],[-50.87132,-13.73266],[-50.83318,-14.08941],[-50.91701,-14.11438],[-50.97479,-14.29042],[-50.9624,-14.52663],[-51.08553,-14.91728],[-51.24213,-15.03496],[-51.32213,-14.97138],[-51.42568,-15.00763],[-51.65161,-15.17944],[-51.6995,-15.48409],[-51.72732,-15.55016],[-51.77581,-15.53721],[-51.76248,-15.64519],[-51.87912,-15.82495],[-51.94635,-15.81012],[-52.00756,-15.88504],[-52.25223,-15.89265],[-52.32727,-16.06815],[-52.52504,-16.14012],[-52.54681,-16.26085],[-52.68643,-16.31504],[-52.6879,-16.39586],[-52.6039,-16.46421],[-52.63526,-16.55119],[-52.73895,-16.58937],[-52.7152,-16.63882],[-52.78548,-16.74075],[-53.03912,-16.91151],[-53.05552,-17.06992],[-53.21814,-17.29886],[-53.25071,-17.61863],[-53.07148,-18.03902],[-53.4299,-17.98354],[-53.47207,-18.0387],[-53.61465,-17.97781],[-53.69168,-18.01323],[-53.87182,-17.92142],[-53.87406,-17.92178],[-53.95524,-17.88257],[-53.88787,-17.74855],[-53.70565,-17.66194],[-53.70815,-17.22772],[-54.03712,-17.486],[-54.07653,-17.61456],[-54.30191,-17.66121],[-54.38728,-17.63149],[-54.38243,-17.57109],[-54.4808,-17.48722],[-54.58115,-17.46756],[-54.86035,-17.62341],[-55.12674,-17.65228],[-55.29215,-17.5421],[-55.52357,-17.48073],[-55.64076,-17.33897],[-55.93884,-17.27663],[-56.11259,-17.16676],[-56.4428,-17.33027],[-56.50124,-17.28589],[-56.64718,-17.33902],[-56.73332,-17.30942],[-56.82834,-17.39073],[-56.87544,-17.53253],[-56.98182,-17.57979],[-57.04438,-17.72988],[-57.37698,-17.82572],[-57.45193,-17.9022],[-57.68377,-17.7152],[-57.71154,-17.54367],[-57.75176,-17.56389],[-57.88304,-17.44921],[-57.99135,-17.51379],[-58.10923,-17.4529],[-58.39489,-17.18366],[-58.47321,-16.93339],[-58.46986,-16.70315],[-58.33305,-16.48951],[-58.32066,-16.26423],[-58.42968,-16.32074],[-60.17101,-16.26522],[-60.23795,-15.47338],[-60.56426,-15.1082],[-60.24366,-15.0963],[-60.27154,-14.61984],[-60.32106,-14.60557],[-60.48944,-14.18836],[-60.38139,-13.98697],[-60.49124,-13.856],[-60.46658,-13.79524],[-60.70778,-13.69248],[-60.63166,-13.57129],[-60.38738,-13.45429],[-60.36083,-13.29932]]]}},{"type":"Feature","properties":{"sigla":"PA"},"geometry":{"type":"MultiPolygon","coordinates":[[[[-47.83502,-0.65471],[-47.81441,-0.56084],[-47.76709,-0.63727],[-47.76331,-0.56514],[-47.70349,-0.53492],[-47.62602,-0.70097],[-47.57896,-0.58104],[-47.54194,-0.60432],[-47.48764,-0.7646],[-47.44391,-0.58889],[-47.42512,-0.65501],[-47.32208,-0.59384],[-47.29258,-0.64541],[-47.21211,-0.63721],[-47.24329,-0.70686],[-47.16061,-0.66742],[-47.16969,-0.77618],[-47.08827,-0.66231],[-47.05728,-0.80587],[-47.04069,-0.72898],[-46.95145,-0.73406],[-46.95542,-0.86079],[-46.91706,-0.87547],[-46.84517,-0.73545],[-46.85025,-0.86396],[-46.81631,-0.82845],[-46.78849,-0.89997],[-46.7659,-0.81719],[-46.74588,-0.92007],[-46.72107,-0.82672],[-46.67363,-0.86125],[-46.68526,-0.8065],[-46.63769,-0.78794],[-46.60853,-0.84177],[-46.64471,-0.8685],[-46.63428,-0.92826],[-46.68329,-0.95192],[-46.67492,-0.9759],[-46.58053,-0.97366],[-46.55061,-0.90361],[-46.53673,-0.97726],[-46.51054,-0.88389],[-46.42658,-0.85758],[-46.49965,-0.97294],[-46.46827,-1.05288],[-46.41247,-1.01945],[-46.41217,-1.0395],[-46.42981,-1.05306],[-46.42833,-1.06506],[-46.40839,-1.06144],[-46.40992,-1.01746],[-46.42325,-1.00631],[-46.41876,-0.99609],[-46.39003,-0.98681],[-46.37494,-1.05196],[-46.34425,-0.99626],[-46.34849,-1.0723],[-46.30511,-1.08395],[-46.31686,-1.01402],[-46.30059,-1.05475],[-46.28348,-1.04752],[-46.26728,-0.93624],[-46.27006,-0.93349],[-46.26681,-0.93303],[-46.26454,-0.91744],[-46.20425,-0.88602],[-46.25187,-0.99734],[-46.21464,-0.97934],[-46.20922,-1.05836],[-46.27658,-1.1688],[-46.19363,-1.06605],[-46.17117,-0.9925],[-46.20492,-1.13119],[-46.16595,-1.15449],[-46.15794,-1.08002],[-46.14733,-1.125],[-46.07249,-1.01852],[-46.08085,-1.06751],[-46.07508,-1.06685],[-46.06053,-1.09437],[-46.06621,-1.10478],[-46.08293,-1.0797],[-46.10374,-1.20175],[-46.16248,-1.27797],[-46.10384,-1.33661],[-46.17621,-1.47502],[-46.15321,-1.67556],[-46.32356,-1.7652],[-46.2149,-1.81813],[-46.21816,-1.91288],[-46.28022,-2.15256],[-46.43192,-2.23947],[-46.46445,-2.371],[-46.40837,-2.36981],[-46.41597,-2.52906],[-46.49166,-2.53538],[-46.50458,-2.61457],[-46.66352,-2.69385],[-46.57539,-2.84104],[-46.67923,-2.88138],[-46.67944,-3.09319],[-46.74739,-3.12053],[-46.81295,-3.30919],[-46.94205,-3.3749],[-46.94846,-3.47688],[-47.03736,-3.56253],[-47.08769,-3.85509],[-47.31847,-4.04656],[-47.37205,-4.24445],[-47.47302,-4.31407],[-47.61068,-4.55597],[-47.67951,-4.60824],[-47.78949,-4.58515],[-48.75471,-5.3488],[-48.59092,-5.42138],[-48.3843,-5.39384],[-48.30027,-5.52264],[-48.13772,-5.60232],[-48.17388,-5.70884],[-48.29411,-5.7563],[-48.23119,-5.94576],[-48.33428,-6.0039],[-48.29168,-6.10369],[-48.4315,-6.17692],[-48.38224,-6.37923],[-48.49977,-6.35055],[-48.61271,-6.45335],[-48.66441,-6.66238],[-48.81374,-6.75138],[-49.01844,-6.78383],[-49.20905,-6.92502],[-49.18484,-7.23479],[-49.3836,-7.54311],[-49.32277,-7.68136],[-49.15014,-7.80181],[-49.2154,-8.19382],[-49.28287,-8.37917],[-49.37656,-8.45489],[-49.59196,-8.8391],[-49.74463,-8.90577],[-50.03733,-9.28901],[-50.22435,-9.84075],[-56.67137,-9.36701],[-56.7606,-9.40461],[-56.81959,-9.24595],[-57.05731,-9.1838],[-57.03873,-9.0979],[-57.19234,-8.92967],[-57.38023,-8.88074],[-57.42706,-8.78285],[-57.59242,-8.75609],[-57.68633,-8.41368],[-57.64275,-8.21329],[-57.82831,-7.97252],[-57.97206,-7.53421],[-58.13636,-7.35609],[-58.209,-7.13389],[-58.43403,-6.90844],[-58.47795,-6.69924],[-58.26203,-6.46856],[-56.40165,-2.45628],[-56.46509,-2.42278],[-56.38381,-2.27013],[-56.21979,-2.1955],[-56.09705,-2.0368],[-56.22787,-2.05588],[-56.41338,-2.17561],[-56.52656,-2.13886],[-56.67856,-2.21223],[-56.76803,-2.16541],[-56.73403,-2.02168],[-56.85854,-2.01559],[-57.0367,-1.91122],[-57.0634,-1.80816],[-57.1627,-1.76824],[-57.16439,-1.72053],[-57.39218,-1.72274],[-57.40295,-1.67519],[-57.52827,-1.65239],[-57.60207,-1.56996],[-57.67816,-1.594],[-57.71265,-1.50381],[-57.95984,-1.40124],[-58.01703,-1.10582],[-58.16213,-1.22933],[-58.25425,-1.13226],[-58.32277,-1.14296],[-58.42956,-1.02679],[-58.43553,-0.88314],[-58.70466,-0.67864],[-58.72925,-0.43496],[-58.87154,-0.34266],[-58.89489,0.26385],[-58.89494,1.22823],[-58.82061,1.17151],[-58.73898,1.20046],[-58.70489,1.29411],[-58.49573,1.26844],[-58.45738,1.37188],[-58.5082,1.46328],[-58.3851,1.47043],[-58.32188,1.59745],[-58.16044,1.56058],[-58.1289,1.49936],[-58.00375,1.50354],[-57.98947,1.6597],[-57.77424,1.72969],[-57.53713,1.70097],[-57.43288,1.90646],[-57.30432,1.99963],[-57.23049,1.93841],[-57.08611,2.02814],[-57.01368,1.91538],[-56.91921,1.93082],[-56.79079,1.85293],[-56.72043,1.92626],[-56.45069,1.95665],[-55.95598,1.8451],[-55.90328,1.88858],[-55.90252,2.0416],[-56.05448,2.18518],[-56.04232,2.22832],[-56.13831,2.26626],[-56.08944,2.37286],[-56.02126,2.34303],[-55.97758,2.52784],[-55.71727,2.40247],[-55.3848,2.41887],[-55.31968,2.51583],[-55.12291,2.56808],[-55.10249,2.52614],[-55.00324,2.59139],[-54.87171,2.4341],[-54.76262,2.20262],[-54.81234,2.06312],[-54.75331,1.96748],[-54.74429,1.77611],[-54.30882,1.74136],[-54.19062,1.62522],[-54.14318,1.64092],[-54.08598,1.48861],[-54.00856,1.51998],[-53.84986,1.39215],[-53.64982,1.40857],[-53.65048,1.33654],[-53.53807,1.34118],[-53.53554,1.21259],[-53.42604,1.24303],[-53.3994,1.15872],[-53.45907,1.12785],[-53.41101,0.92966],[-53.10582,0.6843],[-53.17483,0.38204],[-52.93323,-0.1392],[-52.85107,-0.14984],[-52.68965,-0.30259],[-52.70221,-0.45891],[-52.63954,-0.58458],[-52.5227,-0.58875],[-52.53818,-0.85448],[-52.45504,-0.82994],[-52.40269,-0.87682],[-52.42657,-1.05046],[-52.11979,-1.14587],[-52.09993,-1.22616],[-52.05418,-1.23389],[-51.98486,-1.12111],[-51.95661,-1.16885],[-51.80863,-1.15677],[-51.70387,-1.06741],[-51.67874,-0.78492],[-51.2159,-0.11829],[-51.08446,-0.08722],[-50.93371,0.07],[-50.66774,0.18535],[-50.55569,0.30704],[-50.4094,0.62366],[-50.09346,0.7024],[-50.04035,0.57386],[-50.0608,0.33875],[-49.73847,0.32293],[-49.67719,0.36629],[-49.39652,0.01607],[-48.93027,-0.2256],[-48.41182,-0.25691],[-48.39005,-0.36295],[-48.47212,-0.49875],[-47.98932,-0.70572],[-47.89716,-0.55247],[-47.84166,-0.58632],[-47.84081,-0.65748],[-47.83502,-0.65471]],[[-46.14733,-1.125],[-46.15405,-1.13524],[-46.14844,-1.13485],[-46.14733,-1.125]],[[-47.84074,-0.66387],[-47.84055,-0.67989],[-47.8375,-0.66601],[-47.84074,-0.66387]]],[[[-46.20639,-0.94079],[-46.20271,-0.93636],[-46.19896,-0.94031],[-46.20639,-0.94079]]],[[[-46.32668,-0.95029],[-46.32264,-0.94494],[-46.3154,-0.95001],[-46.32317,-0.95626],[-46.32668,-0.95029]]],[[[-46.3751,-0.99586],[-46.37491,-1.01108],[-46.38083,-1.01299],[-46.37414,-0.98721],[-46.3751,-0.99586]]],[[[-46.40136,-0.9523],[-46.41164,-0.97009],[-46.43702,-0.98608],[-46.41594,-0.93222],[-46.40136,-0.9523]]],[[[-46.44424,-1.00988],[-46.45046,-1.00905],[-46.43725,-1.00111],[-46.4357,-1.00921],[-46.44424,-1.00988]]],[[[-46.46797,-0.96394],[-46.475,-0.96422],[-46.46883,-0.95772],[-46.46797,-0.96394]]],[[[-46.60777,-0.83082],[-46.60607,-0.82522],[-46.60092,-0.82621],[-46.60033,-0.83014],[-46.60777,-0.83082]]],[[[-46.60815,-0.8589],[-46.60645,-0.85331],[-46.60131,-0.8543],[-46.60071,-0.85822],[-46.60815,-0.8589]]],[[[-47.03409,-0.69506],[-47.02385,-0.69149],[-47.00506,-0.70032],[-47.03317,-0.70786],[-47.03409,-0.69506]]],[[[-47.02171,-0.71543],[-47.01683,-0.71316],[-47.01875,-0.71751],[-47.02171,-0.71543]]],[[[-47.03474,-0.72038],[-47.04297,-0.72202],[-47.04417,-0.71931],[-47.03222,-0.71799],[-47.03474,-0.72038]]]]}},{"type":"Feature","properties":{"sigla":"PB"},"geometry":{"type":"Polygon","coordinates":[[[-37.22677,-6.03464],[-37.17352,-6.04763],[-37.15653,-6.15205],[-37.37692,-6.34399],[-37.39649,-6.51382],[-37.48273,-6.55002],[-37.4843,-6.70964],[-37.28331,-6.69352],[-37.23419,-6.82424],[-37.0018,-6.70917],[-36.95672,-6.79008],[-36.83461,-6.73067],[-36.72978,-6.836],[-36.76575,-6.9352],[-36.71814,-6.98233],[-36.50652,-6.81262],[-36.55734,-6.71037],[-36.52411,-6.59926],[-36.43543,-6.62548],[-36.52875,-6.44672],[-36.49942,-6.35777],[-36.42987,-6.36186],[-36.39413,-6.29358],[-36.27944,-6.30846],[-36.24933,-6.43696],[-36.07957,-6.40479],[-35.97719,-6.48851],[-35.65792,-6.44557],[-35.16979,-6.55799],[-34.96906,-6.48784],[-34.93837,-6.75271],[-34.85478,-6.98368],[-34.84701,-6.98555],[-34.85098,-6.99419],[-34.79311,-7.15408],[-34.83357,-7.54883],[-34.96025,-7.53835],[-35.07937,-7.39662],[-35.24327,-7.37398],[-35.42076,-7.47366],[-35.47897,-7.44465],[-35.53231,-7.65442],[-35.99758,-7.81291],[-36.21623,-7.76373],[-36.26306,-7.83133],[-36.42361,-7.81537],[-36.4453,-7.91531],[-36.55158,-7.89832],[-36.61086,-7.94775],[-36.62817,-8.11064],[-36.99074,-8.30255],[-37.16319,-8.16537],[-37.19227,-7.9602],[-37.35546,-7.97452],[-37.24324,-7.81859],[-37.15154,-7.77944],[-37.16754,-7.58146],[-36.98382,-7.48172],[-37.02585,-7.38754],[-37.17654,-7.30917],[-37.27561,-7.27469],[-37.49652,-7.36714],[-37.53275,-7.4726],[-37.70611,-7.5502],[-37.73836,-7.65981],[-37.85809,-7.65323],[-37.97101,-7.77686],[-38.03913,-7.74774],[-38.07673,-7.83016],[-38.16364,-7.77955],[-38.2864,-7.82982],[-38.3571,-7.67678],[-38.59323,-7.75395],[-38.71472,-7.62152],[-38.53421,-7.2934],[-38.68745,-7.18977],[-38.66947,-7.04731],[-38.76462,-6.9935],[-38.76483,-6.91052],[-38.61703,-6.79358],[-38.67277,-6.69683],[-38.51753,-6.40835],[-38.60167,-6.38924],[-38.56401,-6.35579],[-38.45723,-6.32932],[-38.48585,-6.39836],[-38.28833,-6.50523],[-38.11525,-6.5213],[-37.75727,-6.29038],[-37.74881,-6.19344],[-37.45855,-6.14461],[-37.22677,-6.03464]]]}},{"type":"Feature","properties":{"sigla":"PE"},"geometry":{"type":"MultiPolygon","coordinates":[[[[-37.17654,-7.30917],[-37.27561,-7.27469],[-37.49652,-7.36714],[-37.53275,-7.4726],[-37.70611,-7.5502],[-37.73836,-7.65981],[-37.85809,-7.65323],[-37.97101,-7.77686],[-38.03913,-7.74774],[-38.07673,-7.83016],[-38.16364,-7.77955],[-38.2864,-7.82982],[-38.3571,-7.67678],[-38.59323,-7.75395],[-38.71472,-7.62152],[-38.9392,-7.75838],[-38.96574,-7.84459],[-39.01749,-7.81352],[-39.09092,-7.85778],[-39.13526,-7.72299],[-39.30651,-7.66469],[-39.31718,-7.54089],[-39.66219,-7.31021],[-40.24606,-7.43333],[-40.31895,-7.37399],[-40.54808,-7.39231],[-40.71287,-7.47285],[-40.64403,-7.60734],[-40.67318,-7.76129],[-40.54336,-7.83517],[-40.5894,-8.13758],[-40.7824,-8.25468],[-40.83702,-8.38073],[-40.8933,-8.35742],[-40.92634,-8.44584],[-40.99981,-8.40025],[-41.21697,-8.64513],[-41.35794,-8.70723],[-41.11326,-8.7036],[-41.12419,-8.75227],[-41.02086,-8.84316],[-40.92096,-8.83504],[-40.81961,-9.07999],[-40.66703,-9.15867],[-40.77633,-9.45403],[-40.62279,-9.4825],[-40.42051,-9.35216],[-40.33465,-9.35347],[-40.25033,-9.0601],[-40.12833,-9.10919],[-39.95765,-9.0482],[-39.87357,-8.93091],[-39.89425,-8.8313],[-39.67421,-8.78666],[-39.69076,-8.66192],[-39.40783,-8.53823],[-39.2882,-8.5629],[-39.2334,-8.70536],[-39.03206,-8.73694],[-38.95302,-8.80311],[-38.79843,-8.79237],[-38.64032,-8.98687],[-38.57084,-8.83119],[-38.47945,-8.84969],[-38.51906,-8.94795],[-38.48302,-9.00107],[-38.29599,-9.02249],[-38.31826,-9.14059],[-38.23708,-9.32927],[-38.0919,-9.17231],[-37.97895,-9.14796],[-37.75991,-8.85721],[-37.69844,-8.99205],[-37.48985,-8.96528],[-37.46896,-9.02726],[-37.3151,-9.09386],[-37.23392,-9.23975],[-37.19812,-9.21515],[-37.16392,-9.27529],[-37.10585,-9.23938],[-36.95201,-9.38212],[-36.8678,-9.26811],[-36.6934,-9.27491],[-36.60379,-9.34062],[-36.43656,-9.21168],[-36.2245,-9.17059],[-36.26639,-9.10196],[-36.12366,-9.03006],[-36.12645,-8.95559],[-36.06348,-8.91492],[-35.79505,-8.84771],[-35.74792,-8.91672],[-35.46516,-8.82549],[-35.15204,-8.91295],[-34.8373,-8.00571],[-34.83357,-7.54883],[-34.96025,-7.53835],[-35.07937,-7.39662],[-35.24327,-7.37398],[-35.42076,-7.47366],[-35.47897,-7.44465],[-35.53231,-7.65442],[-35.99758,-7.81291],[-36.21623,-7.76373],[-36.26306,-7.83133],[-36.42361,-7.81537],[-36.4453,-7.91531],[-36.55158,-7.89832],[-36.61086,-7.94775],[-36.62817,-8.11064],[-36.99074,-8.30255],[-37.16319,-8.16537],[-37.19227,-7.9602],[-37.35546,-7.97452],[-37.24324,-7.81859],[-37.15154,-7.77944],[-37.16754,-7.58146],[-36.98382,-7.48172],[-37.02585,-7.38754],[-37.17654,-7.30917]]],[[[-32.40714,-3.83777],[-32.46764,-3.87736],[-32.40057,-3.83693],[-32.40714,-3.83777]]],[[[-32.40057,-3.83693],[-32.39735,-3.83337],[-32.39848,-3.83061],[-32.39998,-3.83193],[-32.40057,-3.83693]]]]}},{"type":"Feature","properties":{"sigla":"PI"},"geometry":{"type":"MultiPolygon","coordinates":[[[[-41.73868,-2.80558],[-41.81373,-2.73896],[-41.86511,-2.87453],[-41.79641,-2.9662],[-41.93867,-3.18701],[-42.11544,-3.26197],[-42.09975,-3.31103],[-42.20399,-3.43541],[-42.45831,-3.4853],[-42.49798,-3.44738],[-42.67536,-3.67524],[-42.72582,-3.90965],[-42.9888,-4.23369],[-42.96292,-4.37605],[-42.85005,-4.48099],[-42.9542,-4.6891],[-42.9494,-4.79033],[-42.8544,-4.93665],[-42.79756,-5.18285],[-42.82592,-5.34657],[-43.09861,-5.63282],[-43.0746,-6.05435],[-42.86674,-6.23428],[-42.82894,-6.33704],[-42.91938,-6.66992],[-43.00078,-6.75408],[-43.2443,-6.76597],[-43.41964,-6.84345],[-43.71562,-6.69881],[-44.03299,-6.76002],[-44.0693,-6.82099],[-44.11393,-6.80467],[-44.3058,-7.11678],[-44.56366,-7.22714],[-44.68757,-7.39414],[-44.81632,-7.36081],[-44.92403,-7.4699],[-45.33935,-7.57986],[-45.45558,-7.67028],[-45.76522,-8.60918],[-45.93458,-8.7787],[-45.99387,-8.92647],[-45.89326,-9.34178],[-45.78341,-9.4797],[-45.841,-9.5619],[-45.84186,-9.94115],[-45.94595,-10.25816],[-45.79333,-10.26726],[-45.72247,-10.1549],[-45.60276,-10.10757],[-45.56704,-10.13911],[-45.39602,-10.44649],[-45.44691,-10.55592],[-45.3578,-10.73179],[-45.24764,-10.82155],[-45.07282,-10.84],[-44.93081,-10.92834],[-44.66727,-10.75964],[-44.66731,-10.68553],[-44.58911,-10.632],[-44.50206,-10.64949],[-44.33524,-10.54855],[-44.26362,-10.62425],[-44.14631,-10.64101],[-44.07261,-10.58029],[-44.01767,-10.40474],[-43.91682,-10.42399],[-43.76563,-10.07964],[-43.69252,-10.07698],[-43.66188,-10.00393],[-43.70864,-9.91281],[-43.65285,-9.83864],[-43.78452,-9.76197],[-43.84929,-9.54764],[-43.57418,-9.31768],[-43.46127,-9.26137],[-43.27837,-9.42417],[-43.1196,-9.37213],[-42.98747,-9.40093],[-42.94586,-9.51801],[-42.76478,-9.61634],[-42.71966,-9.5308],[-42.49178,-9.49305],[-42.24334,-9.28851],[-41.83758,-9.24186],[-41.72322,-9.01314],[-41.54413,-8.96014],[-41.35794,-8.70723],[-41.21697,-8.64513],[-40.99981,-8.40025],[-40.92634,-8.44584],[-40.8933,-8.35742],[-40.83702,-8.38073],[-40.7824,-8.25468],[-40.5894,-8.13758],[-40.54336,-7.83517],[-40.67318,-7.76129],[-40.64403,-7.60734],[-40.71287,-7.47285],[-40.54808,-7.39231],[-40.48936,-7.1183],[-40.40588,-7.00494],[-40.42814,-6.86387],[-40.37021,-6.80267],[-40.73155,-6.65368],[-40.79175,-6.51248],[-40.78075,-6.32386],[-40.90673,-6.04136],[-40.92513,-5.18111],[-41.13143,-5.04769],[-41.2488,-4.86873],[-41.20764,-4.7764],[-41.24996,-4.75626],[-41.1739,-4.66709],[-41.24216,-4.57115],[-41.09051,-4.16997],[-41.1428,-4.12388],[-41.11401,-4.04028],[-41.25431,-4.03539],[-41.21986,-3.94115],[-41.30044,-3.82594],[-41.2391,-3.71221],[-41.34137,-3.68042],[-41.37023,-3.56679],[-41.29884,-3.49067],[-41.42314,-3.36765],[-41.25628,-3.08766],[-41.32231,-2.92097],[-41.59311,-2.90514],[-41.73868,-2.80558]]]]}},{"type":"Feature","properties":{"sigla":"PR"},"geometry":{"type":"MultiPolygon","coordinates":[[[[-52.06416,-22.53384],[-52.12517,-22.51879],[-52.15617,-22.64424],[-52.22299,-22.67383],[-52.2499,-22.61495],[-52.50279,-22.63359],[-52.58622,-22.56604],[-52.70117,-22.62699],[-52.92423,-22.56515],[-53.0873,-22.65792],[-53.10467,-22.62145],[-53.20144,-22.72829],[-53.6069,-22.95086],[-53.7301,-23.31723],[-53.98233,-23.45953],[-54.09932,-23.94599],[-54.2871,-24.06951],[-54.3447,-24.13957],[-54.25759,-24.36236],[-54.4413,-24.94861],[-54.42961,-25.15889],[-54.61733,-25.45253],[-54.59308,-25.59182],[-54.42909,-25.69482],[-54.37815,-25.59438],[-54.17798,-25.58427],[-54.20612,-25.54237],[-54.09916,-25.4949],[-54.09831,-25.61826],[-54.07879,-25.55862],[-53.95602,-25.645],[-53.89205,-25.6221],[-53.82235,-25.79206],[-53.83353,-25.97037],[-53.73431,-26.0427],[-53.74067,-26.11648],[-53.64257,-26.25226],[-53.49668,-26.30234],[-53.28097,-26.2467],[-53.0901,-26.39001],[-52.73725,-26.34168],[-52.60102,-26.41354],[-52.18515,-26.44492],[-51.87311,-26.59974],[-51.50956,-26.58169],[-51.41103,-26.71679],[-51.39077,-26.66339],[-51.22817,-26.61552],[-51.29731,-26.41897],[-51.24277,-26.32357],[-51.08267,-26.22789],[-50.9442,-26.28202],[-50.93452,-26.23338],[-50.89951,-26.28863],[-50.86855,-26.2418],[-50.718,-26.24429],[-50.62792,-26.06263],[-50.55259,-26.05494],[-50.57131,-26.0033],[-50.32311,-26.13444],[-50.33157,-26.08321],[-50.25103,-26.02973],[-50.18204,-26.07848],[-50.17137,-26.02467],[-50.12058,-26.06386],[-49.99306,-26.01113],[-49.97221,-26.05776],[-49.94173,-26.00838],[-49.55459,-26.23683],[-49.1748,-26.00135],[-48.59395,-25.97659],[-48.43869,-25.65406],[-48.29794,-25.567],[-48.30926,-25.49277],[-48.21682,-25.46779],[-48.09852,-25.31089],[-48.02308,-25.23047],[-48.1144,-25.25019],[-48.18672,-25.1984],[-48.1564,-25.14415],[-48.2512,-24.97825],[-48.33319,-25.07007],[-48.41059,-24.97962],[-48.5281,-25.10029],[-48.58218,-25.05106],[-48.56733,-24.847],[-48.49883,-24.73846],[-48.58137,-24.67112],[-48.95797,-24.68478],[-49.00425,-24.63392],[-49.05532,-24.68215],[-49.30482,-24.67214],[-49.3155,-24.55501],[-49.20028,-24.34397],[-49.28296,-24.30754],[-49.35538,-24.21145],[-49.33679,-24.13719],[-49.61024,-23.8512],[-49.54936,-23.70323],[-49.61665,-23.6391],[-49.6287,-23.51174],[-49.56661,-23.42674],[-49.61887,-23.39648],[-49.67783,-23.16457],[-49.91111,-23.05063],[-49.98567,-22.89702],[-50.18284,-22.95327],[-50.66179,-22.89521],[-50.7411,-22.96091],[-50.89039,-22.79533],[-51.1544,-22.75239],[-51.26329,-22.66857],[-51.55907,-22.6967],[-52.06416,-22.53384]]]]}},{"type":"Feature","properties":{"sigla":"RJ"},"geometry":{"type":"MultiPolygon","coordinates":[[[[-44.64468,-23.07381],[-44.64372,-23.0714],[-44.69033,-23.08257],[-44.71216,-23.23339],[-44.64293,-23.18534],[-44.6241,-23.22106],[-44.69212,-23.2527],[-44.61316,-23.23406],[-44.65538,-23.29532],[-44.55989,-23.22709],[-44.58375,-23.26633],[-44.51273,-23.29293],[-44.59106,-23.36222],[-44.724,-23.3676],[-44.88849,-23.224],[-44.82444,-23.16098],[-44.79204,-22.98166],[-44.49429,-22.84599],[-44.46656,-22.88456],[-44.26953,-22.8298],[-44.16051,-22.67782],[-44.22637,-22.60407],[-44.38398,-22.57322],[-44.50815,-22.64044],[-44.63302,-22.60873],[-44.73998,-22.42612],[-44.8088,-22.40477],[-44.53278,-22.32993],[-44.45602,-22.25675],[-44.23505,-22.2657],[-43.76557,-22.06242],[-43.56217,-22.0873],[-43.24613,-22.00654],[-43.13066,-22.02948],[-43.13646,-22.10881],[-43.073,-22.09335],[-42.88209,-21.95962],[-42.27113,-21.71471],[-42.36857,-21.61912],[-42.25235,-21.48978],[-42.2922,-21.45954],[-42.18928,-21.2494],[-42.20808,-21.17772],[-42.08006,-21.0352],[-42.15126,-20.97389],[-41.97626,-20.93501],[-41.8745,-20.76632],[-41.712,-20.87107],[-41.71759,-21.12333],[-41.27667,-21.23975],[-41.09203,-21.21816],[-40.95718,-21.30296],[-41.07365,-21.51483],[-41.01,-21.6115],[-40.98467,-21.99923],[-41.7668,-22.35409],[-41.99793,-22.60833],[-41.98463,-22.71729],[-41.919,-22.77074],[-41.8735,-22.73734],[-41.88659,-22.77694],[-42.03086,-22.90425],[-42.01286,-22.99733],[-42.51728,-22.93206],[-43.0515,-22.98224],[-43.1353,-22.93826],[-43.02644,-22.74178],[-43.08542,-22.67715],[-43.27766,-22.78039],[-43.26321,-22.80988],[-43.2289,-22.78269],[-43.18249,-22.78103],[-43.17211,-22.8303],[-43.26302,-22.81027],[-43.23788,-22.86156],[-43.17735,-22.89557],[-43.16851,-22.91548],[-43.1907,-22.99038],[-43.56755,-23.06334],[-43.71144,-23.05558],[-43.57265,-23.05022],[-43.83636,-22.90309],[-44.04661,-22.98394],[-44.04616,-22.93824],[-44.10971,-23.02288],[-44.23698,-23.05638],[-44.24804,-22.99587],[-44.35785,-23.02287],[-44.29904,-22.9577],[-44.36358,-22.92338],[-44.43318,-22.96264],[-44.43073,-23.02032],[-44.63733,-23.06986],[-44.64161,-23.0745],[-44.64468,-23.07381]],[[-43.16851,-22.91548],[-43.17244,-22.91654],[-43.17025,-22.91953],[-43.16851,-22.91548]],[[-43.56755,-23.06334],[-43.55676,-23.0503],[-43.55964,-23.04587],[-43.56852,-23.05232],[-43.56755,-23.06334]],[[-43.35103,-22.99344],[-43.30146,-23.00899],[-43.36348,-22.97362],[-43.41247,-22.98541],[-43.35103,-22.99344]]],[[[-44.51273,-23.29293],[-44.50518,-23.2914],[-44.50244,-23.29635],[-44.50933,-23.30135],[-44.51273,-23.29293]]],[[[-41.88659,-22.77694],[-41.8838,-22.7801],[-41.88184,-22.78389],[-41.885,-22.78435],[-41.88659,-22.77694]]],[[[-43.23788,-22.86156],[-43.24257,-22.83714],[-43.22902,-22.83647],[-43.21412,-22.86623],[-43.23788,-22.86156]]],[[[-43.17735,-22.89557],[-43.17461,-22.89278],[-43.16696,-22.89504],[-43.17169,-22.89773],[-43.17735,-22.89557]]],[[[-41.68675,-22.40174],[-41.69037,-22.40233],[-41.69122,-22.39867],[-41.68568,-22.39663],[-41.68675,-22.40174]]],[[[-41.69831,-22.41006],[-41.69488,-22.41667],[-41.70541,-22.40722],[-41.6971,-22.40288],[-41.69831,-22.41006]]],[[[-43.10855,-22.75847],[-43.11178,-22.75329],[-43.1044,-22.74839],[-43.10287,-22.75266],[-43.10855,-22.75847]]],[[[-43.14818,-23.05992],[-43.14221,-23.0654],[-43.14674,-23.06505],[-43.14818,-23.05992]]],[[[-43.2079,-23.04054],[-43.20632,-23.03795],[-43.20216,-23.03741],[-43.2079,-23.04054]]],[[[-43.51441,-23.06527],[-43.5114,-23.06073],[-43.50837,-23.06453],[-43.51441,-23.06527]]],[[[-43.8279,-23.0573],[-43.77799,-23.06045],[-44.01212,-23.07781],[-43.88468,-23.06701],[-43.90711,-23.02608],[-43.8279,-23.0573]]],[[[-43.91335,-22.93897],[-43.88187,-22.92385],[-43.86771,-22.92557],[-43.89625,-22.95779],[-43.91335,-22.93897]]],[[[-43.90997,-22.98303],[-43.91295,-22.98303],[-43.91425,-22.9798],[-43.90805,-22.97944],[-43.90997,-22.98303]]],[[[-43.92935,-23.00671],[-43.93671,-22.9978],[-43.92005,-22.98726],[-43.9169,-22.9933],[-43.92935,-23.00671]]],[[[-43.94372,-23.02329],[-43.94696,-23.02386],[-43.94368,-23.01961],[-43.94372,-23.02329]]],[[[-43.95385,-23.005],[-43.95022,-23.00569],[-43.95171,-23.00822],[-43.95385,-23.005]]],[[[-43.95368,-23.02504],[-43.95273,-23.0221],[-43.95074,-23.02488],[-43.95368,-23.02504]]],[[[-44.04585,-22.9996],[-44.03446,-22.99591],[-44.02953,-23.00689],[-44.04705,-23.01066],[-44.04585,-22.9996]]],[[[-44.23322,-23.08944],[-44.09501,-23.17467],[-44.30212,-23.17755],[-44.33348,-23.22298],[-44.34876,-23.22612],[-44.37725,-23.17179],[-44.23322,-23.08944]]],[[[-44.12923,-23.03537],[-44.12373,-23.03962],[-44.12879,-23.04083],[-44.12923,-23.03537]]],[[[-44.5763,-23.18597],[-44.57307,-23.18351],[-44.57284,-23.18893],[-44.57638,-23.18984],[-44.5763,-23.18597]]],[[[-44.58821,-23.20618],[-44.58376,-23.20366],[-44.6026,-23.22256],[-44.61928,-23.22256],[-44.58821,-23.20618]]],[[[-44.58376,-23.20366],[-44.58371,-23.20051],[-44.58046,-23.19852],[-44.57913,-23.203],[-44.58376,-23.20366]]],[[[-44.67243,-23.09945],[-44.67187,-23.09621],[-44.66912,-23.09773],[-44.67243,-23.09945]]],[[[-44.67508,-23.11111],[-44.67235,-23.11187],[-44.6747,-23.11399],[-44.67508,-23.11111]]],[[[-44.68744,-23.16421],[-44.69414,-23.15595],[-44.68362,-23.15163],[-44.68172,-23.15722],[-44.68744,-23.16421]]],[[[-44.69281,-23.21542],[-44.6894,-23.21439],[-44.69085,-23.21798],[-44.69281,-23.21542]]]]}},{"type":"Feature","properties":{"sigla":"RN"},"geometry":{"type":"MultiPolygon","coordinates":[[[[-37.15172,-4.93536],[-37.25157,-4.83204],[-37.63994,-4.92603],[-37.9016,-5.49713],[-38.08234,-5.67217],[-38.04669,-5.73003],[-38.12455,-5.88723],[-38.27663,-6.06957],[-38.44693,-6.08489],[-38.57822,-6.27981],[-38.56401,-6.35579],[-38.45723,-6.32932],[-38.48585,-6.39836],[-38.28833,-6.50523],[-38.11525,-6.5213],[-37.75727,-6.29038],[-37.74881,-6.19344],[-37.45855,-6.14461],[-37.22677,-6.03464],[-37.17352,-6.04763],[-37.15653,-6.15205],[-37.37692,-6.34399],[-37.39649,-6.51382],[-37.48273,-6.55002],[-37.4843,-6.70964],[-37.28331,-6.69352],[-37.23419,-6.82424],[-37.0018,-6.70917],[-36.95672,-6.79008],[-36.83461,-6.73067],[-36.72978,-6.836],[-36.76575,-6.9352],[-36.71814,-6.98233],[-36.50652,-6.81262],[-36.55734,-6.71037],[-36.52411,-6.59926],[-36.43543,-6.62548],[-36.52875,-6.44672],[-36.49942,-6.35777],[-36.42987,-6.36186],[-36.39413,-6.29358],[-36.27944,-6.30846],[-36.24933,-6.43696],[-36.07957,-6.40479],[-35.97719,-6.48851],[-35.65792,-6.44557],[-35.16979,-6.55799],[-34.96906,-6.48784],[-35.09399,-6.18179],[-35.26071,-5.48045],[-35.48863,-5.15797],[-35.97427,-5.04165],[-36.1513,-5.09503],[-36.68947,-5.09187],[-36.96216,-4.91938],[-37.15172,-4.93536]]]]}},{"type":"Feature","properties":{"sigla":"RO"},"geometry":{"type":"MultiPolygon","coordinates":[[[[-66.45889,-9.87524],[-66.6193,-9.8936],[-66.80597,-9.81413],[-66.775,-9.75269],[-66.50022,-9.63317],[-66.39201,-9.50009],[-66.40846,-9.40655],[-65.96987,-9.41277],[-65.79108,-9.58525],[-65.59632,-9.41348],[-65.43425,-9.46595],[-65.44655,-9.31599],[-65.38475,-9.33764],[-65.24619,-9.25728],[-65.18415,-9.4266],[-65.09737,-9.43213],[-64.93559,-9.25543],[-64.91678,-9.04276],[-64.83884,-8.99373],[-64.61058,-9.01607],[-64.32289,-8.92848],[-64.31081,-8.99609],[-64.14894,-8.95856],[-64.13036,-8.72178],[-64.02736,-8.71529],[-63.98569,-8.58526],[-63.92406,-8.57515],[-63.97399,-8.48686],[-63.94361,-8.33081],[-63.87024,-8.28844],[-63.77299,-8.32035],[-63.62027,-7.96892],[-62.86609,-7.9755],[-62.69175,-8.09253],[-62.68613,-8.1734],[-62.5256,-8.38268],[-62.46494,-8.33936],[-62.36655,-8.38922],[-62.34055,-8.60245],[-62.28077,-8.63821],[-62.26835,-8.57538],[-62.18786,-8.59018],[-62.12444,-8.80129],[-61.90535,-8.87413],[-61.83596,-8.73235],[-61.77407,-8.74785],[-61.71274,-8.68747],[-61.58242,-8.79831],[-61.46811,-8.91714],[-61.5544,-9.08987],[-61.52588,-9.24367],[-61.63201,-9.26624],[-61.47706,-9.62691],[-61.57383,-9.71728],[-61.50738,-9.8607],[-61.59965,-10.15444],[-61.46124,-10.41952],[-61.47329,-10.79712],[-61.51002,-10.79393],[-61.54971,-10.9857],[-60.45952,-10.98946],[-60.34743,-11.10864],[-60.30071,-11.05676],[-60.20426,-11.11173],[-59.97624,-11.12199],[-59.9201,-11.39761],[-60.11435,-11.59106],[-60.10823,-11.83918],[-59.98463,-11.91395],[-59.89178,-12.24505],[-59.77381,-12.34055],[-59.85531,-12.47819],[-59.93468,-12.48668],[-60.0682,-12.6156],[-60.08599,-12.8983],[-60.28245,-13.08015],[-60.26796,-13.14457],[-60.36083,-13.29932],[-60.38738,-13.45429],[-60.63166,-13.57129],[-60.70778,-13.69248],[-60.87895,-13.61717],[-60.92239,-13.5404],[-61.00569,-13.54663],[-61.01427,-13.48708],[-61.19357,-13.53594],[-61.29566,-13.47737],[-61.46934,-13.55467],[-61.57608,-13.48817],[-61.84038,-13.54837],[-61.89234,-13.43047],[-62.11503,-13.25801],[-62.16983,-13.11347],[-62.19032,-13.15332],[-62.21409,-13.11086],[-62.2714,-13.15524],[-62.3914,-13.13429],[-62.45331,-13.06431],[-62.60894,-13.04217],[-62.65018,-12.96513],[-62.7784,-13.00909],[-62.89142,-12.85842],[-63.00759,-12.83707],[-63.06153,-12.68528],[-63.15717,-12.61343],[-63.2949,-12.6814],[-63.4341,-12.56585],[-63.78567,-12.42749],[-63.95627,-12.53038],[-64.41553,-12.44099],[-64.51232,-12.34659],[-64.51211,-12.2224],[-64.69738,-12.1869],[-64.70797,-12.08639],[-64.75167,-12.1572],[-64.78786,-12.08534],[-64.83109,-12.12117],[-64.83795,-12.01089],[-65.03139,-11.99453],[-65.01513,-11.89425],[-65.0701,-11.86866],[-65.08833,-11.70878],[-65.18559,-11.75581],[-65.26005,-11.70642],[-65.21126,-11.53001],[-65.30863,-11.49286],[-65.33482,-11.35449],[-65.29122,-11.32371],[-65.34564,-11.30335],[-65.31851,-11.19872],[-65.36291,-11.14682],[-65.25112,-10.9835],[-65.27534,-10.87024],[-65.36617,-10.79209],[-65.34406,-10.69044],[-65.41345,-10.62363],[-65.42891,-10.48056],[-65.28824,-10.21943],[-65.33244,-9.95733],[-65.28552,-9.84106],[-65.36288,-9.71154],[-65.44291,-9.66974],[-65.55864,-9.8433],[-65.70955,-9.80607],[-65.68474,-9.7487],[-65.74375,-9.78148],[-65.77385,-9.7342],[-65.79389,-9.79123],[-65.919,-9.75329],[-65.96615,-9.80421],[-66.15163,-9.78518],[-66.45889,-9.87524]]],[[[-66.45889,-9.87524],[-66.45407,-9.87727],[-66.45677,-9.87848],[-66.45889,-9.87524]]]]}},{"type":"Feature","properties":{"sigla":"RR"},"geometry":{"type":"Polygon","coordinates":[[[-59.91256,3.14764],[-59.98963,2.68657],[-59.89602,2.36333],[-59.72192,2.27679],[-59.75124,1.86169],[-59.66231,1.8702],[-59.68986,1.75848],[-59.53624,1.72014],[-59.25237,1.3886],[-58.91802,1.3169],[-58.89494,1.22823],[-58.89489,0.26385],[-60.03743,0.26384],[-60.29886,-0.21141],[-60.28942,-0.29281],[-60.39942,-0.50976],[-60.3031,-0.71094],[-60.47859,-0.77059],[-60.53054,-0.87475],[-60.75219,-0.86086],[-60.76054,-0.76114],[-60.92026,-0.55504],[-61.08693,-0.49976],[-61.21637,-0.49975],[-61.23054,-0.56364],[-61.42831,-0.63392],[-61.53831,-0.75587],[-61.5847,-0.93669],[-61.54359,-1.06197],[-61.62832,-1.30114],[-61.4822,-1.5803],[-61.63498,-1.43363],[-61.89609,-1.39502],[-62.03915,-1.11808],[-62.50054,-0.78114],[-62.4861,-0.68114],[-62.40637,-0.72697],[-62.29034,-0.64633],[-62.30867,-0.51383],[-62.18784,-0.33049],[-62.24784,-0.30161],[-62.24451,-0.17439],[-62.42388,0.09191],[-62.44581,0.3794],[-62.53248,0.50914],[-62.53498,0.69415],[-62.45721,0.78551],[-62.47109,1.0866],[-62.52914,1.08913],[-62.63685,1.43404],[-62.80391,1.59067],[-62.72321,1.7127],[-62.7055,1.94003],[-62.8383,2.01678],[-63.02325,2.01498],[-63.14098,2.17276],[-63.28226,2.15419],[-63.37183,2.21206],[-63.4062,2.43611],[-63.7084,2.38061],[-64.05548,2.49806],[-63.98423,2.65338],[-63.99349,2.77008],[-64.23376,3.11408],[-64.25465,3.41137],[-64.18512,3.56005],[-64.67319,4.00505],[-64.80985,4.17505],[-64.79654,4.28583],[-64.55982,4.10231],[-64.16374,4.12672],[-63.96375,3.86848],[-63.85897,3.94802],[-63.68198,3.9079],[-63.68023,4.01737],[-63.49819,3.84307],[-63.43453,3.8679],[-63.42817,3.97755],[-63.20567,3.95176],[-63.22595,3.83588],[-63.10262,3.79366],[-63.08061,3.69368],[-62.95956,3.60811],[-62.83493,3.73783],[-62.73622,3.6895],[-62.72844,3.80505],[-62.78809,3.89373],[-62.74722,4.03489],[-62.55639,4.01811],[-62.552,4.10922],[-62.43709,4.18337],[-62.14506,4.07526],[-61.98373,4.17966],[-61.93003,4.10373],[-61.7744,4.24986],[-61.55907,4.2546],[-61.51277,4.40658],[-61.28893,4.45821],[-61.32141,4.53512],[-61.14615,4.48291],[-60.99555,4.51803],[-60.90016,4.71575],[-60.74267,4.76168],[-60.59128,4.92725],[-60.65608,5.15668],[-60.72259,5.22032],[-60.43366,5.18176],[-60.20971,5.27086],[-59.99616,5.08492],[-59.9897,4.9866],[-60.02955,4.70088],[-60.16195,4.50834],[-59.79359,4.46583],[-59.67507,4.37276],[-59.72405,4.18279],[-59.61587,4.13248],[-59.64876,4.07183],[-59.51745,3.94349],[-59.59394,3.88429],[-59.59538,3.79618],[-59.67877,3.75884],[-59.66785,3.70347],[-59.86523,3.57727],[-59.80315,3.50755],[-59.84111,3.42649],[-59.80623,3.35481],[-59.91256,3.14764]]]}},{"type":"Feature","properties":{"sigla":"RS"},"geometry":{"type":"MultiPolygon","coordinates":[[[[-52.04367,-31.57374],[-52.10993,-31.55357],[-52.10221,-31.62541],[-52.05692,-31.59848],[-52.06856,-31.67612],[-52.20028,-31.72815],[-52.25617,-31.84862],[-52.06788,-32.02963],[-52.09815,-32.16151],[-52.30639,-32.36101],[-52.62867,-33.11565],[-53.15157,-33.58893],[-53.41598,-33.74835],[-53.52904,-33.68729],[-53.5353,-33.61326],[-53.51017,-33.5354],[-53.44975,-33.5696],[-53.43042,-33.15555],[-53.31951,-33.05469],[-53.25567,-33.10212],[-53.15937,-32.96917],[-53.12315,-32.79099],[-53.07234,-32.83249],[-52.98217,-32.73413],[-53.00053,-32.79298],[-52.89417,-32.8922],[-52.75001,-32.86162],[-52.58562,-32.52622],[-52.69313,-32.31762],[-52.62186,-32.14331],[-52.73727,-32.16654],[-52.79479,-32.27079],[-52.81726,-32.34049],[-52.72378,-32.38711],[-52.95342,-32.48555],[-53.07578,-32.65616],[-53.38786,-32.58627],[-53.64372,-32.38316],[-53.74526,-32.07828],[-53.97167,-31.91828],[-54.0999,-31.92732],[-54.45387,-31.65214],[-54.5849,-31.4577],[-54.83526,-31.44143],[-55.00592,-31.26778],[-55.07324,-31.33187],[-55.23789,-31.25996],[-55.34982,-31.03738],[-55.57656,-30.83323],[-55.6596,-30.86884],[-55.66471,-30.95202],[-55.72169,-30.94274],[-55.86924,-31.06975],[-56.00942,-31.08079],[-56.02236,-30.78606],[-56.80661,-30.10373],[-57.06839,-30.08638],[-57.22132,-30.28985],[-57.52331,-30.28522],[-57.55655,-30.21203],[-57.64189,-30.19167],[-57.34523,-30.00276],[-57.2777,-29.81709],[-56.96751,-29.6386],[-56.70514,-29.36133],[-56.58885,-29.11962],[-56.41347,-29.07074],[-56.40899,-28.97662],[-56.30339,-28.89964],[-56.28247,-28.78768],[-56.18286,-28.76807],[-56.002,-28.59886],[-56.01043,-28.50708],[-55.8855,-28.47963],[-55.87164,-28.35852],[-55.6995,-28.42558],[-55.66747,-28.33327],[-55.77021,-28.2419],[-55.6078,-28.11573],[-55.55696,-28.16199],[-55.49296,-28.07724],[-55.44449,-28.09625],[-55.3831,-27.98294],[-55.19581,-27.85622],[-55.1319,-27.89575],[-55.10663,-27.84633],[-55.03133,-27.85494],[-55.08034,-27.7791],[-54.93608,-27.77206],[-54.81159,-27.52924],[-54.77441,-27.58522],[-54.68196,-27.57426],[-54.67239,-27.50463],[-54.62129,-27.54086],[-54.58471,-27.45419],[-54.52972,-27.50534],[-54.41054,-27.40473],[-54.34618,-27.46664],[-54.33554,-27.40115],[-54.28415,-27.44706],[-54.17207,-27.25439],[-54.0994,-27.30295],[-53.95296,-27.15223],[-53.86018,-27.12767],[-53.83383,-27.16934],[-53.49154,-27.20165],[-53.50603,-27.1379],[-53.37198,-27.09048],[-53.29405,-27.13394],[-53.30948,-27.21685],[-53.15789,-27.13841],[-53.07175,-27.15709],[-53.02846,-27.0801],[-52.98966,-27.21731],[-52.95799,-27.16303],[-52.92513,-27.20187],[-52.85002,-27.16855],[-52.69145,-27.28284],[-52.66652,-27.2379],[-52.4792,-27.26445],[-52.43399,-27.21868],[-52.37487,-27.30379],[-52.29763,-27.31655],[-52.30125,-27.25957],[-52.25342,-27.25702],[-52.27721,-27.29651],[-52.22372,-27.32858],[-52.17334,-27.27239],[-52.09749,-27.34792],[-52.00877,-27.33394],[-51.94936,-27.39181],[-52.00732,-27.4016],[-51.88904,-27.51983],[-51.85687,-27.47524],[-51.79502,-27.52976],[-51.7979,-27.49057],[-51.63112,-27.48875],[-51.56858,-27.58353],[-51.48986,-27.55963],[-51.43221,-27.65455],[-51.38622,-27.62343],[-51.23485,-27.77888],[-51.0816,-27.83438],[-51.01007,-27.96256],[-50.92845,-27.9686],[-50.86873,-28.13723],[-50.78603,-28.14285],[-50.62463,-28.39098],[-50.35672,-28.42041],[-50.34529,-28.4628],[-50.24659,-28.42874],[-50.1565,-28.4972],[-50.12629,-28.42885],[-50.09955,-28.48478],[-49.97105,-28.43861],[-49.94303,-28.48149],[-49.85754,-28.44311],[-49.83931,-28.49574],[-49.76469,-28.45966],[-49.69176,-28.62466],[-49.78208,-28.61081],[-49.87516,-28.74438],[-49.93488,-28.72761],[-49.96516,-28.92172],[-49.92005,-28.97821],[-50.00698,-29.07164],[-49.95607,-29.06698],[-49.96765,-29.11556],[-50.01644,-29.1809],[-50.09895,-29.16325],[-50.0927,-29.22185],[-50.13962,-29.19342],[-50.16597,-29.24734],[-50.03694,-29.35076],[-50.11417,-29.25876],[-49.96246,-29.19839],[-49.71131,-29.32545],[-50.01749,-29.7718],[-50.333,-30.50027],[-50.76879,-31.10956],[-51.24979,-31.56674],[-51.88456,-31.95765],[-52.08114,-32.15693],[-52.01332,-31.93885],[-52.09763,-31.83542],[-51.86836,-31.87085],[-51.81241,-31.81677],[-51.86461,-31.7989],[-51.66414,-31.77045],[-51.47409,-31.55916],[-51.43579,-31.62435],[-51.46211,-31.54386],[-51.41579,-31.47289],[-51.36005,-31.52863],[-51.20293,-31.41187],[-51.16812,-31.06684],[-51.10308,-31.09886],[-50.98002,-31.04052],[-50.96623,-30.89558],[-50.75311,-30.81827],[-50.70146,-30.7458],[-50.71701,-30.35146],[-50.69856,-30.34567],[-50.64735,-30.39494],[-50.62347,-30.39158],[-50.62683,-30.32732],[-50.59263,-30.3998],[-50.65388,-30.44244],[-50.57084,-30.47066],[-50.53743,-30.27343],[-50.5969,-30.19407],[-50.65836,-30.1994],[-50.67272,-30.29612],[-50.92159,-30.33165],[-50.9228,-30.43694],[-51.0547,-30.3914],[-51.01927,-30.29599],[-51.10213,-30.25387],[-51.15784,-30.26196],[-51.18906,-30.23559],[-51.19091,-30.23835],[-51.19149,-30.23458],[-51.19053,-30.23435],[-51.24806,-30.18576],[-51.22987,-30.04322],[-51.29515,-30.00116],[-51.32801,-30.22632],[-51.27291,-30.24932],[-51.29313,-30.30349],[-51.21019,-30.2974],[-51.18423,-30.38197],[-51.09718,-30.35705],[-51.14226,-30.47054],[-51.182,-30.40739],[-51.25795,-30.46633],[-51.29548,-30.7505],[-51.31713,-30.64764],[-51.3765,-30.63986],[-51.36862,-30.87367],[-51.49609,-30.91487],[-51.4402,-31.08719],[-51.61757,-31.13919],[-51.61617,-31.26716],[-51.91886,-31.31025],[-51.99314,-31.41304],[-52.03221,-31.69464],[-52.04367,-31.57374]],[[-51.79786,-31.81426],[-51.79127,-31.81442],[-51.78664,-31.80577],[-51.79558,-31.80481],[-51.79786,-31.81426]]],[[[-51.29548,-30.7505],[-51.2806,-30.80114],[-51.28981,-30.817],[-51.32341,-30.78035],[-51.29548,-30.7505]]],[[[-49.95607,-29.06698],[-49.95626,-29.06168],[-49.93956,-29.05669],[-49.94769,-29.06924],[-49.95607,-29.06698]]],[[[-51.2945,-30.05359],[-51.28923,-30.0569],[-51.26843,-30.05538],[-51.29182,-30.06435],[-51.2945,-30.05359]]],[[[-52.10169,-31.80146],[-52.10617,-31.80159],[-52.11047,-31.79274],[-52.09348,-31.79267],[-52.10169,-31.80146]]],[[[-53.41856,-33.12956],[-53.4167,-33.11823],[-53.40606,-33.10753],[-53.41278,-33.118],[-53.41856,-33.12956]]]]}},{"type":"Feature","properties":{"sigla":"SC"},"geometry":{"type":"MultiPolygon","coordinates":[[[[-48.41035,-27.38943],[-48.35939,-27.44819],[-48.50064,-27.71415],[-48.47545,-27.7692],[-48.56963,-27.83571],[-48.57111,-27.67295],[-48.52377,-27.65008],[-48.56392,-27.59318],[-48.50811,-27.54761],[-48.54717,-27.45838],[-48.41035,-27.38943]]],[[[-53.72045,-26.55991],[-53.64257,-26.25226],[-53.49668,-26.30234],[-53.28097,-26.2467],[-53.0901,-26.39001],[-52.73725,-26.34168],[-52.60102,-26.41354],[-52.18515,-26.44492],[-51.87311,-26.59974],[-51.50956,-26.58169],[-51.41103,-26.71679],[-51.39077,-26.66339],[-51.22817,-26.61552],[-51.29731,-26.41897],[-51.24277,-26.32357],[-51.08267,-26.22789],[-50.9442,-26.28202],[-50.93452,-26.23338],[-50.89951,-26.28863],[-50.86855,-26.2418],[-50.718,-26.24429],[-50.62792,-26.06263],[-50.55259,-26.05494],[-50.57131,-26.0033],[-50.32311,-26.13444],[-50.33157,-26.08321],[-50.25103,-26.02973],[-50.18204,-26.07848],[-50.17137,-26.02467],[-50.12058,-26.06386],[-49.99306,-26.01113],[-49.97221,-26.05776],[-49.94173,-26.00838],[-49.55459,-26.23683],[-49.1748,-26.00135],[-48.59395,-25.97659],[-48.58049,-26.16476],[-48.49243,-26.21868],[-48.68548,-26.68797],[-48.67088,-26.76192],[-48.58496,-26.78302],[-48.6427,-26.90148],[-48.62075,-26.99926],[-48.5669,-27.00744],[-48.60215,-27.12461],[-48.46515,-27.14468],[-48.48027,-27.20746],[-48.52969,-27.18088],[-48.61613,-27.25072],[-48.59575,-27.31608],[-48.52382,-27.3336],[-48.64666,-27.48252],[-48.56722,-27.59541],[-48.64348,-27.64273],[-48.60107,-27.66128],[-48.57351,-27.8896],[-48.62299,-27.95083],[-48.64596,-28.23345],[-48.80928,-28.60501],[-49.29061,-28.88249],[-49.71131,-29.32545],[-49.96246,-29.19839],[-50.11417,-29.25876],[-50.03694,-29.35076],[-50.16597,-29.24734],[-50.13962,-29.19342],[-50.0927,-29.22185],[-50.09895,-29.16325],[-50.01644,-29.1809],[-49.96765,-29.11556],[-49.95607,-29.06698],[-50.00698,-29.07164],[-49.92005,-28.97821],[-49.96516,-28.92172],[-49.93488,-28.72761],[-49.87516,-28.74438],[-49.78208,-28.61081],[-49.69176,-28.62466],[-49.76469,-28.45966],[-49.83931,-28.49574],[-49.85754,-28.44311],[-49.94303,-28.48149],[-49.97105,-28.43861],[-50.09955,-28.48478],[-50.12629,-28.42885],[-50.1565,-28.4972],[-50.24659,-28.42874],[-50.34529,-28.4628],[-50.35672,-28.42041],[-50.62463,-28.39098],[-50.78603,-28.14285],[-50.86873,-28.13723],[-50.92845,-27.9686],[-51.01007,-27.96256],[-51.0816,-27.83438],[-51.23485,-27.77888],[-51.38622,-27.62343],[-51.43221,-27.65455],[-51.48986,-27.55963],[-51.56858,-27.58353],[-51.63112,-27.48875],[-51.7979,-27.49057],[-51.79502,-27.52976],[-51.85687,-27.47524],[-51.88904,-27.51983],[-52.00732,-27.4016],[-51.94936,-27.39181],[-52.00877,-27.33394],[-52.09749,-27.34792],[-52.17334,-27.27239],[-52.22372,-27.32858],[-52.27721,-27.29651],[-52.25342,-27.25702],[-52.30125,-27.25957],[-52.29763,-27.31655],[-52.37487,-27.30379],[-52.43399,-27.21868],[-52.4792,-27.26445],[-52.66652,-27.2379],[-52.69145,-27.28284],[-52.85002,-27.16855],[-52.92513,-27.20187],[-52.95799,-27.16303],[-52.98966,-27.21731],[-53.02846,-27.0801],[-53.07175,-27.15709],[-53.15789,-27.13841],[-53.30948,-27.21685],[-53.29405,-27.13394],[-53.37198,-27.09048],[-53.50603,-27.1379],[-53.49154,-27.20165],[-53.83383,-27.16934],[-53.77728,-27.10087],[-53.79904,-27.04424],[-53.75798,-27.06161],[-53.78334,-27.02553],[-53.67021,-26.94138],[-53.69494,-26.85761],[-53.66,-26.85909],[-53.75382,-26.71357],[-53.72045,-26.55991]],[[-49.95607,-29.06698],[-49.94769,-29.06924],[-49.93956,-29.05669],[-49.95626,-29.06168],[-49.95607,-29.06698]],[[-53.72045,-26.55991],[-53.7077,-26.56185],[-53.70593,-26.55926],[-53.70866,-26.55587],[-53.72045,-26.55991]]],[[[-48.56537,-27.47724],[-48.56215,-27.47387],[-48.56364,-27.47952],[-48.56537,-27.47724]]]]}},{"type":"Feature","properties":{"sigla":"SE"},"geometry":{"type":"MultiPolygon","coordinates":[[[[-37.96006,-9.53282],[-38.00302,-9.51458],[-38.04011,-9.60212],[-37.98748,-9.64697],[-38.04221,-9.71564],[-37.96628,-9.81563],[-37.99726,-9.91629],[-37.83138,-10.0005],[-37.73616,-10.33161],[-37.85872,-10.42604],[-37.81353,-10.69062],[-37.99947,-10.76395],[-38.0579,-10.70815],[-38.21155,-10.70873],[-38.22914,-10.9155],[-38.10606,-11.01544],[-38.06255,-11.16339],[-37.97396,-11.19484],[-37.97746,-11.39315],[-37.86553,-11.42802],[-37.81335,-11.51387],[-37.68817,-11.56581],[-37.65058,-11.51834],[-37.51755,-11.54758],[-37.3425,-11.44345],[-36.85376,-10.74314],[-36.39343,-10.49807],[-36.45574,-10.40721],[-36.56376,-10.41591],[-36.62331,-10.25773],[-36.71994,-10.26447],[-36.91046,-10.13751],[-36.9916,-9.97678],[-37.96006,-9.53282]]]]}},{"type":"Feature","properties":{"sigla":"SP"},"geometry":{"type":"MultiPolygon","coordinates":[[[[-46.13327,-23.85688],[-46.18138,-23.99001],[-46.28703,-24.04397],[-46.3126,-23.98071],[-46.38423,-23.96987],[-46.39892,-24.03308],[-46.4978,-24.03985],[-46.94041,-24.28004],[-47.00924,-24.41356],[-47.84147,-24.9745],[-47.90946,-25.05288],[-47.91252,-25.15805],[-48.09852,-25.31089],[-48.02308,-25.23047],[-48.1144,-25.25019],[-48.18672,-25.1984],[-48.1564,-25.14415],[-48.2512,-24.97825],[-48.33319,-25.07007],[-48.41059,-24.97962],[-48.5281,-25.10029],[-48.58218,-25.05106],[-48.56733,-24.847],[-48.49883,-24.73846],[-48.58137,-24.67112],[-48.95797,-24.68478],[-49.00425,-24.63392],[-49.05532,-24.68215],[-49.30482,-24.67214],[-49.3155,-24.55501],[-49.20028,-24.34397],[-49.28296,-24.30754],[-49.35538,-24.21145],[-49.33679,-24.13719],[-49.61024,-23.8512],[-49.54936,-23.70323],[-49.61665,-23.6391],[-49.6287,-23.51174],[-49.56661,-23.42674],[-49.61887,-23.39648],[-49.67783,-23.16457],[-49.91111,-23.05063],[-49.98567,-22.89702],[-50.18284,-22.95327],[-50.66179,-22.89521],[-50.7411,-22.96091],[-50.89039,-22.79533],[-51.1544,-22.75239],[-51.26329,-22.66857],[-51.55907,-22.6967],[-52.06416,-22.53384],[-52.12517,-22.51879],[-52.15617,-22.64424],[-52.22299,-22.67383],[-52.2499,-22.61495],[-52.50279,-22.63359],[-52.58622,-22.56604],[-52.70117,-22.62699],[-52.92423,-22.56515],[-53.0873,-22.65792],[-53.10467,-22.62145],[-52.99807,-22.49271],[-52.4925,-22.21948],[-52.37671,-22.1062],[-52.30831,-21.95144],[-52.07598,-21.71438],[-52.09275,-21.53758],[-51.9674,-21.50129],[-51.86719,-21.35119],[-51.87536,-21.13568],[-51.61849,-20.93195],[-51.6344,-20.75438],[-51.58647,-20.63433],[-51.3429,-20.35534],[-51.06867,-20.24958],[-50.99999,-20.08491],[-50.47142,-19.77918],[-50.35231,-19.86412],[-49.8908,-19.94325],[-49.55099,-19.90537],[-49.43991,-19.98033],[-49.25025,-19.97033],[-49.30806,-20.10151],[-49.21719,-20.30323],[-49.1303,-20.27967],[-49.06744,-20.15397],[-48.99178,-20.16492],[-48.96843,-20.39327],[-48.89886,-20.44072],[-48.82274,-20.16143],[-48.24591,-20.14047],[-48.24048,-20.02887],[-48.11162,-20.14342],[-48.01939,-20.11968],[-47.97551,-20.03489],[-47.89392,-20.12336],[-47.85932,-19.99252],[-47.70378,-19.97943],[-47.63552,-20.0479],[-47.46592,-19.96374],[-47.43867,-20.04919],[-47.25659,-20.16572],[-47.29133,-20.44883],[-47.15392,-20.51925],[-47.09692,-20.64385],[-47.23959,-20.8848],[-47.14327,-20.9819],[-47.11833,-21.18529],[-46.9976,-21.35035],[-47.01078,-21.4218],[-46.76425,-21.35957],[-46.7055,-21.40435],[-46.66525,-21.36116],[-46.61481,-21.44098],[-46.5088,-21.46941],[-46.5171,-21.6114],[-46.62114,-21.67505],[-46.69051,-21.83646],[-46.61302,-22.00911],[-46.72281,-22.07652],[-46.60006,-22.13425],[-46.6732,-22.17563],[-46.7228,-22.30613],[-46.6661,-22.4139],[-46.40669,-22.54005],[-46.3926,-22.66248],[-46.47748,-22.6989],[-46.33476,-22.7597],[-46.35918,-22.89563],[-46.14419,-22.8578],[-46.13863,-22.92226],[-45.90943,-22.81678],[-45.88846,-22.87532],[-45.79082,-22.85764],[-45.75447,-22.79241],[-45.71314,-22.81429],[-45.72783,-22.72317],[-45.81942,-22.72206],[-45.69355,-22.65121],[-45.71647,-22.5781],[-45.66045,-22.57848],[-45.66456,-22.65016],[-45.57627,-22.60185],[-45.58393,-22.65119],[-45.53946,-22.65208],[-45.47134,-22.59002],[-45.39955,-22.65263],[-45.12802,-22.49661],[-44.8088,-22.40477],[-44.73998,-22.42612],[-44.63302,-22.60873],[-44.50815,-22.64044],[-44.38398,-22.57322],[-44.22637,-22.60407],[-44.16051,-22.67782],[-44.26953,-22.8298],[-44.46656,-22.88456],[-44.49429,-22.84599],[-44.79204,-22.98166],[-44.82444,-23.16098],[-44.88849,-23.224],[-44.724,-23.3676],[-44.84378,-23.38694],[-44.90736,-23.33319],[-45.06092,-23.41965],[-45.01866,-23.46132],[-45.08162,-23.52126],[-45.17124,-23.49309],[-45.21106,-23.58253],[-45.28184,-23.59716],[-45.28281,-23.60109],[-45.28837,-23.59851],[-45.40613,-23.62285],[-45.43081,-23.8318],[-45.84401,-23.7576],[-46.13327,-23.85688]]],[[[-44.85138,-23.39918],[-44.85338,-23.40323],[-44.84943,-23.39494],[-44.85138,-23.39918]]],[[[-44.94854,-23.38621],[-44.94505,-23.38338],[-44.94054,-23.38352],[-44.9445,-23.38735],[-44.94854,-23.38621]]],[[[-45.01859,-23.75424],[-45.02429,-23.75193],[-45.02275,-23.74356],[-45.01463,-23.74673],[-45.01859,-23.75424]]],[[[-45.03332,-23.54871],[-45.02801,-23.54508],[-45.02465,-23.54396],[-45.02582,-23.54926],[-45.03332,-23.54871]]],[[[-45.07785,-23.53529],[-45.05914,-23.52623],[-45.0394,-23.53438],[-45.0792,-23.56384],[-45.07785,-23.53529]]],[[[-45.13978,-23.79987],[-45.11492,-23.80717],[-45.11968,-23.81728],[-45.15639,-23.8129],[-45.13978,-23.79987]]],[[[-45.16338,-23.56671],[-45.15631,-23.55927],[-45.1458,-23.57018],[-45.15762,-23.57281],[-45.16338,-23.56671]]],[[[-45.15636,-23.83077],[-45.15386,-23.82863],[-45.15308,-23.83163],[-45.15636,-23.83077]]],[[[-45.32093,-23.91494],[-45.42737,-23.94039],[-45.46166,-23.88776],[-45.32883,-23.72099],[-45.22959,-23.77629],[-45.22856,-23.81322],[-45.22524,-23.81368],[-45.22823,-23.81709],[-45.22854,-23.8139],[-45.22786,-23.83818],[-45.28974,-23.86589],[-45.22677,-23.94079],[-45.32093,-23.91494]]],[[[-45.52603,-23.84933],[-45.52024,-23.84863],[-45.52221,-23.85442],[-45.52521,-23.85402],[-45.52603,-23.84933]]],[[[-45.67173,-23.80468],[-45.67033,-23.802],[-45.66883,-23.80494],[-45.67173,-23.80468]]],[[[-45.71404,-23.79018],[-45.71256,-23.78726],[-45.70908,-23.78821],[-45.71404,-23.79018]]],[[[-45.72593,-23.80064],[-45.71912,-23.79783],[-45.71455,-23.80298],[-45.72401,-23.80295],[-45.72593,-23.80064]]],[[[-45.77901,-23.86761],[-45.78686,-23.86729],[-45.7846,-23.85837],[-45.7755,-23.85866],[-45.77901,-23.86761]]],[[[-46.90665,-24.38968],[-46.90312,-24.38725],[-46.9034,-24.39663],[-46.90626,-24.39441],[-46.90665,-24.38968]]],[[[-46.90941,-24.37383],[-46.90454,-24.37383],[-46.90859,-24.38053],[-46.91065,-24.37745],[-46.90941,-24.37383]]],[[[-46.97988,-24.37096],[-46.979,-24.3679],[-46.97488,-24.36962],[-46.97702,-24.37228],[-46.97988,-24.37096]]],[[[-47.91351,-25.16685],[-47.91141,-25.16292],[-47.90841,-25.16695],[-47.91351,-25.16685]]]]}},{"type":"Feature","properties":{"sigla":"TO"},"geometry":{"type":"Polygon","coordinates":[[[-47.03102,-8.98549],[-47.0683,-9.06348],[-46.92223,-9.0663],[-46.92588,-9.13454],[-46.82236,-9.19864],[-46.84663,-9.29202],[-46.76294,-9.40855],[-46.66555,-9.39152],[-46.56055,-9.48363],[-46.5374,-9.55738],[-46.64699,-9.72995],[-46.49322,-9.82702],[-46.45599,-10.04947],[-46.36746,-10.1684],[-46.16422,-10.21249],[-46.02785,-10.17646],[-46.00313,-10.26052],[-45.94595,-10.25816],[-45.79333,-10.26726],[-45.72247,-10.1549],[-45.73802,-10.34203],[-45.8243,-10.36556],[-45.8273,-10.43554],[-46.06573,-10.60292],[-46.21055,-10.64926],[-46.19214,-10.71929],[-46.251,-10.75666],[-46.28299,-10.90634],[-46.39851,-10.99398],[-46.47193,-11.19077],[-46.61667,-11.28903],[-46.47889,-11.51597],[-46.08625,-11.62171],[-46.31453,-11.63183],[-46.37416,-11.86818],[-46.17084,-11.90056],[-46.39744,-12.03992],[-46.35196,-12.33698],[-46.256,-12.42391],[-46.25433,-12.49276],[-46.15354,-12.4828],[-46.27952,-12.58447],[-46.30436,-12.94944],[-46.11389,-12.91754],[-46.36344,-12.99079],[-46.36577,-12.86442],[-46.41719,-12.82304],[-46.45422,-12.97072],[-46.75018,-12.96872],[-46.97843,-13.13114],[-47.22872,-13.19444],[-47.28171,-13.26448],[-47.3773,-13.23018],[-47.42653,-13.28901],[-47.47845,-13.18471],[-47.56263,-13.1838],[-47.56091,-13.12424],[-47.63434,-13.10407],[-47.66846,-13.20897],[-47.62229,-13.36723],[-47.67854,-13.46728],[-47.82355,-13.31143],[-47.96588,-13.31483],[-48.06201,-13.23497],[-48.16496,-13.30536],[-48.17349,-13.14767],[-48.44127,-13.29194],[-48.50842,-13.12842],[-48.58596,-13.31718],[-48.60165,-13.05989],[-48.7303,-12.98936],[-48.84632,-12.80938],[-48.97518,-12.95677],[-49.07763,-12.90328],[-49.11863,-12.78993],[-49.23696,-12.88354],[-49.33701,-13.06587],[-49.36904,-13.27417],[-49.91291,-12.96556],[-50.29218,-12.83949],[-50.29964,-12.68047],[-50.19271,-12.56389],[-50.22926,-12.53194],[-50.15776,-12.41195],[-50.36546,-12.54565],[-50.51061,-12.86028],[-50.62226,-12.81931],[-50.64646,-12.6507],[-50.70602,-12.60928],[-50.61779,-12.42857],[-50.64384,-12.2223],[-50.68641,-12.20173],[-50.63882,-11.88415],[-50.72158,-11.73929],[-50.65606,-11.60042],[-50.73971,-11.5382],[-50.74159,-11.45449],[-50.60899,-11.06705],[-50.60299,-10.66053],[-50.41783,-10.35586],[-50.39169,-10.13363],[-50.22435,-9.84075],[-50.03733,-9.28901],[-49.74463,-8.90577],[-49.59196,-8.8391],[-49.37656,-8.45489],[-49.28287,-8.37917],[-49.2154,-8.19382],[-49.15014,-7.80181],[-49.32277,-7.68136],[-49.3836,-7.54311],[-49.18484,-7.23479],[-49.20905,-6.92502],[-49.01844,-6.78383],[-48.81374,-6.75138],[-48.66441,-6.66238],[-48.61271,-6.45335],[-48.49977,-6.35055],[-48.38224,-6.37923],[-48.4315,-6.17692],[-48.29168,-6.10369],[-48.33428,-6.0039],[-48.23119,-5.94576],[-48.29411,-5.7563],[-48.17388,-5.70884],[-48.13772,-5.60232],[-48.30027,-5.52264],[-48.3843,-5.39384],[-48.59092,-5.42138],[-48.75471,-5.3488],[-48.679,-5.30546],[-48.60569,-5.33613],[-48.53858,-5.20455],[-48.36347,-5.16801],[-48.17811,-5.26041],[-47.88514,-5.26033],[-47.84333,-5.37584],[-47.74179,-5.38093],[-47.49969,-5.52524],[-47.37839,-6.27048],[-47.52948,-6.97615],[-47.74578,-7.20084],[-47.64808,-7.30297],[-47.58867,-7.26371],[-47.49936,-7.29347],[-47.48544,-7.36672],[-47.59044,-7.43915],[-47.50428,-7.43625],[-47.04307,-8.0532],[-46.60425,-7.89579],[-46.46619,-8.0658],[-46.54421,-8.31893],[-46.80641,-8.39858],[-46.91597,-8.59538],[-46.91302,-8.84743],[-46.99212,-8.879],[-47.03102,-8.98549]],[[-47.03296,-8.98232],[-47.03102,-8.98549],[-47.03133,-8.98013],[-47.03296,-8.98232]]]}},{"type":"Feature","properties":{"sigla":"DF"},"geometry":{"type":"MultiPolygon","coordinates":[[[[-47.30861,-16.03549],[-47.37645,-15.97794],[-47.31543,-15.59397],[-47.41691,-15.49986],[-48.19719,-15.50051],[-48.24037,-15.70653],[-48.20562,-15.741],[-48.28665,-15.84269],[-48.27867,-16.0511],[-47.30837,-16.05008],[-47.30861,-16.03549]]]]}}]}